{
  "version": 0.6,
  "generator": "Overpass API 0.7.56.9 76e5016d",
  "osm3s": {
    "copyright": "The data included in this document is from www.openstreetmap.org. The data is made available under ODbL."
  },
  "elements": [

{
  "type": "node",
  "id": 2673371780,
  "lat": 49.3654000,
  "lon": 13.1663333,
  "tags": {
    "amenity": "recycling"
  }
},
{
  "type": "node",
  "id": 2844142546,
  "lat": 49.3808866,
  "lon": 13.2990908,
  "tags": {
    "amenity": "recycling",
    "recycling:cans": "no",
    "recycling:clothes": "no",
    "recycling:glass": "yes",
    "recycling:paper": "yes"
  }
},
{
  "type": "node",
  "id": 1589628517,
  "lat": 49.4813366,
  "lon": 13.2862306,
  "tags": {
    "amenity": "recycling"
  }
},
{
  "type": "node",
  "id": 2724019237,
  "lat": 49.4777872,
  "lon": 13.2916070,
  "tags": {
    "amenity": "recycling",
    "source": "survey"
  }
},
{
  "type": "node",
  "id": 3664056400,
  "lat": 49.4486993,
  "lon": 13.3905609,
  "tags": {
    "amenity": "recycling",
    "recycling:clothes": "no",
    "recycling:glass": "yes",
    "recycling:paper": "yes"
  }
},
{
  "type": "node",
  "id": 3957912423,
  "lat": 49.5125520,
  "lon": 12.7989253,
  "tags": {
    "amenity": "recycling"
  }
},
{
  "type": "node",
  "id": 3957912422,
  "lat": 49.5122812,
  "lon": 12.7995289,
  "tags": {
    "amenity": "recycling"
  }
},
{
  "type": "node",
  "id": 3957912424,
  "lat": 49.5126869,
  "lon": 12.8004423,
  "tags": {
    "amenity": "recycling"
  }
},
{
  "type": "node",
  "id": 3957966133,
  "lat": 49.5128225,
  "lon": 12.8034559,
  "tags": {
    "amenity": "recycling"
  }
},
{
  "type": "node",
  "id": 3957966134,
  "lat": 49.5132259,
  "lon": 12.7993885,
  "tags": {
    "amenity": "recycling"
  }
},
{
  "type": "node",
  "id": 7277180694,
  "lat": 49.5122513,
  "lon": 12.8005015,
  "tags": {
    "amenity": "recycling"
  }
},
{
  "type": "node",
  "id": 2627615956,
  "lat": 49.6479791,
  "lon": 12.9299399,
  "tags": {
    "amenity": "recycling",
    "source": "survey"
  }
},
{
  "type": "node",
  "id": 2627616097,
  "lat": 49.6590598,
  "lon": 12.9698059,
  "tags": {
    "amenity": "recycling",
    "source": "survey"
  }
},
{
  "type": "node",
  "id": 2627616256,
  "lat": 49.6821734,
  "lon": 12.9565510,
  "tags": {
    "amenity": "recycling",
    "source": "survey"
  }
},
{
  "type": "node",
  "id": 2266179947,
  "lat": 49.9061273,
  "lon": 12.9705357,
  "tags": {
    "amenity": "recycling",
    "source": "survey"
  }
},
{
  "type": "node",
  "id": 913890132,
  "lat": 49.5922223,
  "lon": 13.0967184,
  "tags": {
    "amenity": "recycling",
    "name": "Sběrný dvůr města Holýšov"
  }
},
{
  "type": "node",
  "id": 2675522592,
  "lat": 49.6680500,
  "lon": 13.0076667,
  "tags": {
    "amenity": "recycling",
    "source": "survey"
  }
},
{
  "type": "node",
  "id": 2294788114,
  "lat": 49.6961879,
  "lon": 13.0711508,
  "tags": {
    "amenity": "recycling",
    "source": "survey"
  }
},
{
  "type": "node",
  "id": 2240095889,
  "lat": 49.8723013,
  "lon": 13.1720229,
  "tags": {
    "amenity": "recycling",
    "source": "survey"
  }
},
{
  "type": "node",
  "id": 4672283503,
  "lat": 49.7781739,
  "lon": 13.3832470,
  "tags": {
    "amenity": "recycling"
  }
},
{
  "type": "node",
  "id": 846394846,
  "lat": 49.9125268,
  "lon": 13.2300456,
  "tags": {
    "amenity": "recycling"
  }
},
{
  "type": "node",
  "id": 7752540857,
  "lat": 50.2138257,
  "lon": 12.1978756,
  "tags": {
    "amenity": "recycling",
    "recycling:glass_bottles": "yes"
  }
},
{
  "type": "node",
  "id": 2290414006,
  "lat": 50.2291010,
  "lon": 12.1807504,
  "tags": {
    "amenity": "recycling"
  }
},
{
  "type": "node",
  "id": 1286766383,
  "lat": 50.1613281,
  "lon": 12.2806775,
  "tags": {
    "amenity": "recycling"
  }
},
{
  "type": "node",
  "id": 5747670753,
  "lat": 50.3041611,
  "lon": 12.1759604,
  "tags": {
    "amenity": "recycling"
  }
},
{
  "type": "node",
  "id": 5739658328,
  "lat": 50.3294237,
  "lon": 12.5081240,
  "tags": {
    "amenity": "recycling"
  }
},
{
  "type": "node",
  "id": 4959722787,
  "lat": 50.0839037,
  "lon": 12.8390587,
  "tags": {
    "amenity": "recycling"
  }
},
{
  "type": "node",
  "id": 1558937798,
  "lat": 50.3310400,
  "lon": 12.7214525,
  "tags": {
    "amenity": "recycling",
    "name": "A.V.E."
  }
},
{
  "type": "node",
  "id": 4392215009,
  "lat": 49.9924018,
  "lon": 13.2364188,
  "tags": {
    "amenity": "recycling"
  }
},
{
  "type": "node",
  "id": 2609883408,
  "lat": 49.9565864,
  "lon": 13.3926434,
  "tags": {
    "amenity": "recycling",
    "source": "survey"
  }
},
{
  "type": "node",
  "id": 2022679655,
  "lat": 49.9922770,
  "lon": 13.3301999,
  "tags": {
    "amenity": "recycling"
  }
},
{
  "type": "node",
  "id": 2394352208,
  "lat": 50.0418194,
  "lon": 13.2894154,
  "tags": {
    "amenity": "recycling",
    "source": "survey"
  }
},
{
  "type": "node",
  "id": 2043111693,
  "lat": 50.0460581,
  "lon": 13.2946444,
  "tags": {
    "amenity": "recycling"
  }
},
{
  "type": "node",
  "id": 3690826393,
  "lat": 50.1049447,
  "lon": 13.2502157,
  "tags": {
    "amenity": "recycling"
  }
},
{
  "type": "node",
  "id": 748338415,
  "lat": 50.3695189,
  "lon": 12.7817843,
  "tags": {
    "amenity": "recycling"
  }
},
{
  "type": "node",
  "id": 748333674,
  "lat": 50.3890463,
  "lon": 12.7581608,
  "tags": {
    "amenity": "recycling"
  }
},
{
  "type": "node",
  "id": 1310931400,
  "lat": 50.3924818,
  "lon": 12.7699303,
  "tags": {
    "amenity": "recycling"
  }
},
{
  "type": "node",
  "id": 811271717,
  "lat": 50.5742607,
  "lon": 13.2915188,
  "tags": {
    "amenity": "recycling"
  }
},
{
  "type": "node",
  "id": 436629135,
  "lat": 50.5776226,
  "lon": 13.3234676,
  "tags": {
    "amenity": "recycling"
  }
},
{
  "type": "node",
  "id": 6167639386,
  "lat": 48.6651320,
  "lon": 14.1706161,
  "tags": {
    "amenity": "recycling"
  }
},
{
  "type": "node",
  "id": 339923186,
  "lat": 48.7571069,
  "lon": 14.0132967,
  "tags": {
    "amenity": "recycling"
  }
},
{
  "type": "node",
  "id": 5513798670,
  "lat": 48.8546467,
  "lon": 14.2100263,
  "tags": {
    "amenity": "recycling"
  }
},
{
  "type": "node",
  "id": 6563787065,
  "lat": 48.9108216,
  "lon": 13.8905853,
  "tags": {
    "amenity": "recycling"
  }
},
{
  "type": "node",
  "id": 6961668965,
  "lat": 48.8124588,
  "lon": 14.3195814,
  "tags": {
    "amenity": "recycling",
    "recycling:glass": "yes",
    "recycling:paper": "yes",
    "recycling:plastic": "yes",
    "recycling:waste": "yes"
  }
},
{
  "type": "node",
  "id": 2372664665,
  "lat": 48.9567440,
  "lon": 14.3294272,
  "tags": {
    "amenity": "recycling",
    "recycling:glass": "yes",
    "recycling:paper": "yes"
  }
},
{
  "type": "node",
  "id": 2371991043,
  "lat": 48.9769757,
  "lon": 14.3606560,
  "tags": {
    "amenity": "recycling",
    "recycling:paper": "yes"
  }
},
{
  "type": "node",
  "id": 3790090919,
  "lat": 48.9752333,
  "lon": 14.3593571,
  "tags": {
    "amenity": "recycling"
  }
},
{
  "type": "node",
  "id": 3790090920,
  "lat": 48.9753640,
  "lon": 14.3612312,
  "tags": {
    "amenity": "recycling"
  }
},
{
  "type": "node",
  "id": 496871141,
  "lat": 49.0083833,
  "lon": 14.3066724,
  "tags": {
    "amenity": "recycling"
  }
},
{
  "type": "node",
  "id": 3120199608,
  "lat": 49.0164149,
  "lon": 14.5965017,
  "tags": {
    "amenity": "recycling"
  }
},
{
  "type": "node",
  "id": 3320273980,
  "lat": 48.8513370,
  "lon": 14.9029042,
  "tags": {
    "amenity": "recycling"
  }
},
{
  "type": "node",
  "id": 4364864929,
  "lat": 49.0021919,
  "lon": 14.7602371,
  "tags": {
    "amenity": "recycling"
  }
},
{
  "type": "node",
  "id": 4364395675,
  "lat": 49.0108553,
  "lon": 14.7853921,
  "tags": {
    "amenity": "recycling"
  }
},
{
  "type": "node",
  "id": 5353323689,
  "lat": 49.1803574,
  "lon": 13.4992471,
  "tags": {
    "amenity": "recycling"
  }
},
{
  "type": "node",
  "id": 2022732328,
  "lat": 49.1414538,
  "lon": 13.8332496,
  "tags": {
    "amenity": "recycling"
  }
},
{
  "type": "node",
  "id": 624563704,
  "lat": 49.3414418,
  "lon": 13.6003665,
  "tags": {
    "amenity": "recycling",
    "source": "survey"
  }
},
{
  "type": "node",
  "id": 3657875702,
  "lat": 49.3023666,
  "lon": 13.6622715,
  "tags": {
    "amenity": "recycling",
    "source": "survey"
  }
},
{
  "type": "node",
  "id": 2022732332,
  "lat": 49.1539152,
  "lon": 13.8480977,
  "tags": {
    "amenity": "recycling"
  }
},
{
  "type": "node",
  "id": 3139387271,
  "lat": 49.4750188,
  "lon": 13.9361957,
  "tags": {
    "amenity": "recycling",
    "recycling:glass": "yes",
    "recycling:paper": "yes"
  }
},
{
  "type": "node",
  "id": 1350629805,
  "lat": 49.3085385,
  "lon": 14.1563529,
  "tags": {
    "amenity": "recycling",
    "recycling:glass": "yes",
    "recycling:paper": "yes"
  }
},
{
  "type": "node",
  "id": 2390056331,
  "lat": 49.5195491,
  "lon": 13.4683076,
  "tags": {
    "amenity": "recycling"
  }
},
{
  "type": "node",
  "id": 1836903198,
  "lat": 49.5842356,
  "lon": 13.4706953,
  "tags": {
    "amenity": "recycling"
  }
},
{
  "type": "node",
  "id": 5994233260,
  "lat": 49.6001960,
  "lon": 13.5354560,
  "tags": {
    "amenity": "recycling"
  }
},
{
  "type": "node",
  "id": 5994233299,
  "lat": 49.6023930,
  "lon": 13.5376100,
  "tags": {
    "amenity": "recycling"
  }
},
{
  "type": "node",
  "id": 2169659009,
  "lat": 49.6283455,
  "lon": 13.5335586,
  "tags": {
    "amenity": "recycling",
    "recycling:glass": "yes",
    "recycling:paper": "yes",
    "recycling:plastic": "yes",
    "source": "survey"
  }
},
{
  "type": "node",
  "id": 3129276309,
  "lat": 49.6888370,
  "lon": 13.6586903,
  "tags": {
    "amenity": "recycling"
  }
},
{
  "type": "node",
  "id": 2674468990,
  "lat": 49.7206338,
  "lon": 13.5708065,
  "tags": {
    "amenity": "recycling",
    "source": "survey"
  }
},
{
  "type": "node",
  "id": 662164457,
  "lat": 49.7885658,
  "lon": 13.7358009,
  "tags": {
    "amenity": "recycling"
  }
},
{
  "type": "node",
  "id": 662164392,
  "lat": 49.7837042,
  "lon": 13.7400093,
  "tags": {
    "amenity": "recycling",
    "recycling:paper": "yes"
  }
},
{
  "type": "node",
  "id": 662164458,
  "lat": 49.7898616,
  "lon": 13.7365600,
  "tags": {
    "amenity": "recycling"
  }
},
{
  "type": "node",
  "id": 662164482,
  "lat": 49.7867288,
  "lon": 13.7407782,
  "tags": {
    "amenity": "recycling",
    "name": "Sběrný dvůr",
    "recycling:scrap_metal": "yes"
  }
},
{
  "type": "node",
  "id": 4296854968,
  "lat": 49.7953063,
  "lon": 13.8338069,
  "tags": {
    "amenity": "recycling"
  }
},
{
  "type": "node",
  "id": 4296854919,
  "lat": 49.8323992,
  "lon": 13.7849841,
  "tags": {
    "amenity": "recycling"
  }
},
{
  "type": "node",
  "id": 5875465414,
  "lat": 49.5602368,
  "lon": 13.9535301,
  "tags": {
    "amenity": "recycling",
    "recycling:cartons": "yes",
    "recycling:glass": "yes",
    "recycling:paper": "yes",
    "recycling:plastic": "yes"
  }
},
{
  "type": "node",
  "id": 2140414869,
  "lat": 49.6318673,
  "lon": 13.9844153,
  "tags": {
    "amenity": "recycling"
  }
},
{
  "type": "node",
  "id": 3707535289,
  "lat": 49.5434238,
  "lon": 14.1983179,
  "tags": {
    "amenity": "recycling"
  }
},
{
  "type": "node",
  "id": 3114728375,
  "lat": 49.6293328,
  "lon": 14.1304538,
  "tags": {
    "amenity": "recycling",
    "name": "plasty",
    "recycling:cans": "no",
    "recycling:clothes": "no",
    "recycling:glass": "no",
    "recycling:paper": "no"
  }
},
{
  "type": "node",
  "id": 7832996925,
  "lat": 49.6377018,
  "lon": 14.2087638,
  "tags": {
    "amenity": "recycling",
    "recycling:clothes": "yes",
    "recycling:glass": "yes",
    "recycling:paper": "yes",
    "recycling:plastic": "yes"
  }
},
{
  "type": "node",
  "id": 441075317,
  "lat": 49.6410596,
  "lon": 14.2524691,
  "tags": {
    "amenity": "recycling",
    "recycling:cans": "yes",
    "recycling:glass": "yes",
    "recycling:scrap_metal": "no"
  }
},
{
  "type": "node",
  "id": 2082378892,
  "lat": 49.6600546,
  "lon": 14.2518179,
  "tags": {
    "amenity": "recycling"
  }
},
{
  "type": "node",
  "id": 4415271590,
  "lat": 49.7865145,
  "lon": 13.9734740,
  "tags": {
    "amenity": "recycling"
  }
},
{
  "type": "node",
  "id": 4413640613,
  "lat": 49.8024014,
  "lon": 14.0214991,
  "tags": {
    "amenity": "recycling"
  }
},
{
  "type": "node",
  "id": 3904603536,
  "lat": 49.8317498,
  "lon": 13.8971021,
  "tags": {
    "amenity": "recycling"
  }
},
{
  "type": "node",
  "id": 3893996082,
  "lat": 49.8333491,
  "lon": 13.9074391,
  "tags": {
    "amenity": "recycling"
  }
},
{
  "type": "node",
  "id": 3901274539,
  "lat": 49.8351110,
  "lon": 13.9076672,
  "tags": {
    "amenity": "recycling"
  }
},
{
  "type": "node",
  "id": 901817014,
  "lat": 49.8361129,
  "lon": 14.2244088,
  "tags": {
    "amenity": "recycling"
  }
},
{
  "type": "node",
  "id": 1187410592,
  "lat": 49.8645354,
  "lon": 14.2172166,
  "tags": {
    "amenity": "recycling",
    "recycling:glass": "yes"
  }
},
{
  "type": "node",
  "id": 1187410594,
  "lat": 49.8636276,
  "lon": 14.2362482,
  "tags": {
    "amenity": "recycling",
    "recycling:glass": "yes",
    "recycling:paper": "yes"
  }
},
{
  "type": "node",
  "id": 2404990367,
  "lat": 49.0903978,
  "lon": 14.3738482,
  "tags": {
    "amenity": "recycling",
    "recycling:glass": "yes",
    "recycling:paper": "yes"
  }
},
{
  "type": "node",
  "id": 686196786,
  "lat": 49.4807067,
  "lon": 14.4185737,
  "tags": {
    "amenity": "recycling"
  }
},
{
  "type": "node",
  "id": 2329492178,
  "lat": 49.3213584,
  "lon": 14.5859354,
  "tags": {
    "amenity": "recycling",
    "recycling:glass": "yes",
    "recycling:paper": "yes"
  }
},
{
  "type": "node",
  "id": 2328491414,
  "lat": 49.3302694,
  "lon": 14.5967447,
  "tags": {
    "amenity": "recycling",
    "recycling:glass": "yes"
  }
},
{
  "type": "node",
  "id": 673705195,
  "lat": 49.3131064,
  "lon": 14.6425423,
  "tags": {
    "amenity": "recycling"
  }
},
{
  "type": "node",
  "id": 673705198,
  "lat": 49.3185435,
  "lon": 14.6465784,
  "tags": {
    "amenity": "recycling"
  }
},
{
  "type": "node",
  "id": 673705212,
  "lat": 49.3209953,
  "lon": 14.6502729,
  "tags": {
    "amenity": "recycling"
  }
},
{
  "type": "node",
  "id": 3858444713,
  "lat": 49.3644305,
  "lon": 14.5774609,
  "tags": {
    "amenity": "recycling"
  }
},
{
  "type": "node",
  "id": 3858444714,
  "lat": 49.3643771,
  "lon": 14.5786551,
  "tags": {
    "amenity": "recycling"
  }
},
{
  "type": "node",
  "id": 3858444715,
  "lat": 49.3626837,
  "lon": 14.5807407,
  "tags": {
    "amenity": "recycling"
  }
},
{
  "type": "node",
  "id": 4340278427,
  "lat": 49.2991403,
  "lon": 14.7458186,
  "tags": {
    "amenity": "recycling"
  }
},
{
  "type": "node",
  "id": 3445526928,
  "lat": 49.1346275,
  "lon": 15.0035347,
  "tags": {
    "amenity": "recycling"
  }
},
{
  "type": "node",
  "id": 674299063,
  "lat": 49.3619184,
  "lon": 14.7060396,
  "tags": {
    "amenity": "recycling"
  }
},
{
  "type": "node",
  "id": 701440941,
  "lat": 49.4026881,
  "lon": 14.8067999,
  "tags": {
    "amenity": "recycling"
  }
},
{
  "type": "node",
  "id": 665393498,
  "lat": 49.4075016,
  "lon": 14.6880368,
  "tags": {
    "amenity": "recycling"
  }
},
{
  "type": "node",
  "id": 701307769,
  "lat": 49.4196984,
  "lon": 14.7196804,
  "tags": {
    "amenity": "recycling"
  }
},
{
  "type": "node",
  "id": 676834613,
  "lat": 49.3748643,
  "lon": 14.9595809,
  "tags": {
    "amenity": "recycling"
  }
},
{
  "type": "node",
  "id": 3481456301,
  "lat": 49.3743001,
  "lon": 14.9809211,
  "tags": {
    "amenity": "recycling"
  }
},
{
  "type": "node",
  "id": 3481442543,
  "lat": 49.3986463,
  "lon": 14.9900401,
  "tags": {
    "amenity": "recycling"
  }
},
{
  "type": "node",
  "id": 3481520968,
  "lat": 49.3755963,
  "lon": 15.0189006,
  "tags": {
    "amenity": "recycling"
  }
},
{
  "type": "node",
  "id": 3482648255,
  "lat": 49.3718357,
  "lon": 15.0274922,
  "tags": {
    "amenity": "recycling",
    "recycling:glass": "yes",
    "recycling:plastic": "yes"
  }
},
{
  "type": "node",
  "id": 3481296538,
  "lat": 49.4142847,
  "lon": 14.9890317,
  "tags": {
    "amenity": "recycling"
  }
},
{
  "type": "node",
  "id": 609948599,
  "lat": 49.4954266,
  "lon": 14.8976370,
  "tags": {
    "amenity": "recycling",
    "recycling:glass": "yes"
  }
},
{
  "type": "node",
  "id": 609948577,
  "lat": 49.4975824,
  "lon": 14.8959888,
  "tags": {
    "amenity": "recycling",
    "recycling:glass": "yes",
    "recycling:paper": "yes"
  }
},
{
  "type": "node",
  "id": 1436481305,
  "lat": 49.4666548,
  "lon": 15.0144210,
  "tags": {
    "addr:conscriptionnumber": "915",
    "addr:country": "CZ",
    "addr:housenumber": "915",
    "addr:place": "Pacov",
    "addr:postcode": "39501",
    "addr:street": "Nádražní",
    "amenity": "recycling",
    "name": "Sběrný dvůr",
    "ref:ruian:addr": "26830639",
    "source": "cuzk:km"
  }
},
{
  "type": "node",
  "id": 2711760090,
  "lat": 49.6859160,
  "lon": 14.2746256,
  "tags": {
    "amenity": "recycling",
    "recycling:cartons": "yes",
    "recycling:clothes": "yes",
    "recycling:glass": "yes",
    "recycling:paper": "yes",
    "recycling:plastic": "yes",
    "source": "survey"
  }
},
{
  "type": "node",
  "id": 814814120,
  "lat": 49.6559210,
  "lon": 14.4230209,
  "tags": {
    "amenity": "recycling"
  }
},
{
  "type": "node",
  "id": 3884333913,
  "lat": 49.5861464,
  "lon": 14.6372435,
  "tags": {
    "amenity": "recycling"
  }
},
{
  "type": "node",
  "id": 3885085749,
  "lat": 49.6358392,
  "lon": 14.6511050,
  "tags": {
    "amenity": "recycling"
  }
},
{
  "type": "node",
  "id": 3885047969,
  "lat": 49.6210871,
  "lon": 14.6660865,
  "tags": {
    "amenity": "recycling"
  }
},
{
  "type": "node",
  "id": 2713105966,
  "lat": 49.7235594,
  "lon": 14.3378707,
  "tags": {
    "amenity": "recycling",
    "recycling:glass": "yes",
    "recycling:paper": "yes"
  }
},
{
  "type": "node",
  "id": 369975224,
  "lat": 49.7443100,
  "lon": 14.3378629,
  "tags": {
    "amenity": "recycling",
    "recycling:glass": "yes",
    "recycling:paper": "yes"
  }
},
{
  "type": "node",
  "id": 4358632134,
  "lat": 49.8889704,
  "lon": 14.3216577,
  "tags": {
    "amenity": "recycling",
    "recycling:cartons": "yes",
    "recycling:clothes": "yes",
    "recycling:glass": "yes",
    "recycling:paper": "yes",
    "recycling:plastic": "yes"
  }
},
{
  "type": "node",
  "id": 4200696604,
  "lat": 49.9137498,
  "lon": 14.3579924,
  "tags": {
    "amenity": "recycling"
  }
},
{
  "type": "node",
  "id": 3832947657,
  "lat": 49.7789607,
  "lon": 14.5492724,
  "tags": {
    "amenity": "recycling"
  }
},
{
  "type": "node",
  "id": 4433345313,
  "lat": 49.7780839,
  "lon": 14.6762909,
  "tags": {
    "amenity": "recycling"
  }
},
{
  "type": "node",
  "id": 4012183049,
  "lat": 49.8027518,
  "lon": 14.6630593,
  "tags": {
    "amenity": "recycling"
  }
},
{
  "type": "node",
  "id": 333120631,
  "lat": 49.8629287,
  "lon": 14.5035401,
  "tags": {
    "amenity": "recycling",
    "recycling:glass": "yes",
    "recycling:plastic": "yes"
  }
},
{
  "type": "node",
  "id": 2889884130,
  "lat": 49.8745953,
  "lon": 14.5009346,
  "tags": {
    "amenity": "recycling",
    "recycling:glass": "yes",
    "recycling:paper": "yes",
    "recycling:plastic": "yes",
    "source": "survey"
  }
},
{
  "type": "node",
  "id": 333120259,
  "lat": 49.8675073,
  "lon": 14.5157354,
  "tags": {
    "amenity": "recycling",
    "recycling:paper": "yes",
    "recycling:plastic": "yes"
  }
},
{
  "type": "node",
  "id": 2889910112,
  "lat": 49.8820621,
  "lon": 14.5036593,
  "tags": {
    "amenity": "recycling",
    "recycling:clothes": "no",
    "recycling:glass": "yes",
    "recycling:paper": "yes",
    "recycling:plastic": "yes",
    "source": "bing"
  }
},
{
  "type": "node",
  "id": 294171783,
  "lat": 49.8912001,
  "lon": 14.5657961,
  "tags": {
    "amenity": "recycling",
    "created_by": "JOSM"
  }
},
{
  "type": "node",
  "id": 2798438979,
  "lat": 49.9243754,
  "lon": 14.5574784,
  "tags": {
    "amenity": "recycling",
    "recycling:glass": "yes",
    "recycling:paper": "yes"
  }
},
{
  "type": "node",
  "id": 1200621148,
  "lat": 49.8365777,
  "lon": 14.5915778,
  "tags": {
    "amenity": "recycling",
    "recycling:glass": "yes",
    "recycling:paper": "yes"
  }
},
{
  "type": "node",
  "id": 1200621173,
  "lat": 49.8390983,
  "lon": 14.5920538,
  "tags": {
    "amenity": "recycling",
    "recycling:glass": "yes",
    "recycling:paper": "yes"
  }
},
{
  "type": "node",
  "id": 4403822771,
  "lat": 49.8927232,
  "lon": 14.6181826,
  "tags": {
    "addr:city": "Kamenice",
    "addr:postcode": "25168",
    "addr:street": "Benešovská",
    "amenity": "recycling"
  }
},
{
  "type": "node",
  "id": 4343183568,
  "lat": 49.9037928,
  "lon": 14.5879547,
  "tags": {
    "amenity": "recycling",
    "recycling:clothes": "yes",
    "recycling:electrical_items": "yes"
  }
},
{
  "type": "node",
  "id": 2798432168,
  "lat": 49.9131903,
  "lon": 14.5826762,
  "tags": {
    "amenity": "recycling",
    "recycling:glass": "yes",
    "recycling:paper": "yes"
  }
},
{
  "type": "node",
  "id": 2798433869,
  "lat": 49.9181218,
  "lon": 14.5807424,
  "tags": {
    "amenity": "recycling",
    "recycling:glass": "yes",
    "recycling:paper": "yes"
  }
},
{
  "type": "node",
  "id": 2798434090,
  "lat": 49.9166874,
  "lon": 14.5807326,
  "tags": {
    "amenity": "recycling",
    "recycling:glass": "yes",
    "recycling:paper": "yes"
  }
},
{
  "type": "node",
  "id": 3149696722,
  "lat": 49.5317281,
  "lon": 14.8095617,
  "tags": {
    "amenity": "recycling"
  }
},
{
  "type": "node",
  "id": 3136345034,
  "lat": 49.5266849,
  "lon": 14.8125694,
  "tags": {
    "amenity": "recycling",
    "recycling:paper": "yes"
  }
},
{
  "type": "node",
  "id": 3142656118,
  "lat": 49.5287997,
  "lon": 14.8119864,
  "tags": {
    "amenity": "recycling"
  }
},
{
  "type": "node",
  "id": 3142656119,
  "lat": 49.5288458,
  "lon": 14.8119914,
  "tags": {
    "amenity": "recycling"
  }
},
{
  "type": "node",
  "id": 3160631877,
  "lat": 49.5376869,
  "lon": 14.8129869,
  "tags": {
    "amenity": "recycling"
  }
},
{
  "type": "node",
  "id": 4433345315,
  "lat": 49.7821665,
  "lon": 14.6837051,
  "tags": {
    "amenity": "recycling"
  }
},
{
  "type": "node",
  "id": 4433345316,
  "lat": 49.7837927,
  "lon": 14.6830226,
  "tags": {
    "amenity": "recycling"
  }
},
{
  "type": "node",
  "id": 3449009036,
  "lat": 49.7858973,
  "lon": 14.6873009,
  "tags": {
    "amenity": "recycling"
  }
},
{
  "type": "node",
  "id": 3467376306,
  "lat": 49.7930644,
  "lon": 14.6896469,
  "tags": {
    "amenity": "recycling",
    "name": "Tříděný odpad",
    "recycling:clothes": "no",
    "recycling:glass": "yes",
    "recycling:paper": "yes"
  }
},
{
  "type": "node",
  "id": 3467377995,
  "lat": 49.7930836,
  "lon": 14.6937751,
  "tags": {
    "amenity": "recycling",
    "name": "Tříděný odpad",
    "recycling:clothes": "no",
    "recycling:glass": "no",
    "recycling:paper": "yes"
  }
},
{
  "type": "node",
  "id": 4087578979,
  "lat": 49.8310252,
  "lon": 14.6934793,
  "tags": {
    "amenity": "recycling"
  }
},
{
  "type": "node",
  "id": 4007958826,
  "lat": 49.8398412,
  "lon": 14.6804084,
  "tags": {
    "amenity": "recycling"
  }
},
{
  "type": "node",
  "id": 1786269728,
  "lat": 49.8463418,
  "lon": 14.7099525,
  "tags": {
    "amenity": "recycling"
  }
},
{
  "type": "node",
  "id": 1786269729,
  "lat": 49.8522532,
  "lon": 14.7061170,
  "tags": {
    "amenity": "recycling"
  }
},
{
  "type": "node",
  "id": 3883000865,
  "lat": 49.8285245,
  "lon": 14.7383680,
  "tags": {
    "amenity": "recycling"
  }
},
{
  "type": "node",
  "id": 3883000873,
  "lat": 49.8351862,
  "lon": 14.7329799,
  "tags": {
    "amenity": "recycling"
  }
},
{
  "type": "node",
  "id": 1424173352,
  "lat": 49.8992170,
  "lon": 14.7281158,
  "tags": {
    "amenity": "recycling",
    "recycling:glass": "yes",
    "recycling:paper": "yes",
    "recycling:plastic": "yes",
    "source": "survey"
  }
},
{
  "type": "node",
  "id": 6745417025,
  "lat": 49.9039986,
  "lon": 14.7874089,
  "tags": {
    "amenity": "recycling",
    "recycling:cans": "yes",
    "recycling:glass": "yes",
    "recycling:paper": "yes",
    "recycling:plastic": "yes"
  }
},
{
  "type": "node",
  "id": 1401974871,
  "lat": 49.8754925,
  "lon": 14.9050137,
  "tags": {
    "amenity": "recycling"
  }
},
{
  "type": "node",
  "id": 5994233259,
  "lat": 49.8726010,
  "lon": 14.9052590,
  "tags": {
    "amenity": "recycling"
  }
},
{
  "type": "node",
  "id": 5994233258,
  "lat": 49.8743370,
  "lon": 14.9212397,
  "tags": {
    "amenity": "recycling"
  }
},
{
  "type": "node",
  "id": 1331318099,
  "lat": 49.0758672,
  "lon": 15.2872358,
  "tags": {
    "amenity": "recycling",
    "source": "survey"
  }
},
{
  "type": "node",
  "id": 890282601,
  "lat": 48.8663309,
  "lon": 15.7366221,
  "tags": {
    "amenity": "recycling"
  }
},
{
  "type": "node",
  "id": 4462379044,
  "lat": 48.9427476,
  "lon": 15.7281837,
  "tags": {
    "amenity": "recycling"
  }
},
{
  "type": "node",
  "id": 1341739841,
  "lat": 48.7979913,
  "lon": 15.9870117,
  "tags": {
    "amenity": "recycling"
  }
},
{
  "type": "node",
  "id": 871907969,
  "lat": 48.7919553,
  "lon": 16.0142666,
  "tags": {
    "amenity": "recycling",
    "recycling:glass": "yes",
    "recycling:paper": "yes"
  }
},
{
  "type": "node",
  "id": 870349514,
  "lat": 48.7810234,
  "lon": 16.2007389,
  "tags": {
    "amenity": "recycling",
    "recycling:glass": "yes",
    "recycling:paper": "yes"
  }
},
{
  "type": "node",
  "id": 866694871,
  "lat": 48.7804773,
  "lon": 16.2102127,
  "tags": {
    "amenity": "recycling",
    "recycling:glass": "yes",
    "recycling:plastic": "yes"
  }
},
{
  "type": "node",
  "id": 1562022924,
  "lat": 48.9354547,
  "lon": 16.1828204,
  "tags": {
    "amenity": "recycling"
  }
},
{
  "type": "node",
  "id": 2742171667,
  "lat": 48.9574191,
  "lon": 16.2127498,
  "tags": {
    "amenity": "recycling"
  }
},
{
  "type": "node",
  "id": 1876292434,
  "lat": 48.9774837,
  "lon": 16.3224791,
  "tags": {
    "amenity": "recycling"
  }
},
{
  "type": "node",
  "id": 520556977,
  "lat": 49.0717543,
  "lon": 16.3513472,
  "tags": {
    "amenity": "recycling"
  }
},
{
  "type": "node",
  "id": 5405237387,
  "lat": 48.8532857,
  "lon": 16.7017903,
  "tags": {
    "amenity": "recycling"
  }
},
{
  "type": "node",
  "id": 8059445360,
  "lat": 49.0153568,
  "lon": 16.7758132,
  "tags": {
    "amenity": "recycling"
  }
},
{
  "type": "node",
  "id": 3664110850,
  "lat": 49.1405537,
  "lon": 15.3347335,
  "tags": {
    "amenity": "recycling",
    "recycling:cans": "no",
    "recycling:clothes": "yes",
    "recycling:glass": "yes",
    "recycling:paper": "yes"
  }
},
{
  "type": "node",
  "id": 3895059441,
  "lat": 49.1801769,
  "lon": 15.4582103,
  "tags": {
    "amenity": "recycling"
  }
},
{
  "type": "node",
  "id": 3895162043,
  "lat": 49.1758399,
  "lon": 15.4583319,
  "tags": {
    "amenity": "recycling"
  }
},
{
  "type": "node",
  "id": 3895051332,
  "lat": 49.1837067,
  "lon": 15.4525997,
  "tags": {
    "amenity": "recycling"
  }
},
{
  "type": "node",
  "id": 4430475385,
  "lat": 49.1829700,
  "lon": 15.4566394,
  "tags": {
    "amenity": "recycling"
  }
},
{
  "type": "node",
  "id": 3661325991,
  "lat": 49.1832173,
  "lon": 15.4611127,
  "tags": {
    "amenity": "recycling",
    "recycling:cans": "no",
    "recycling:clothes": "no",
    "recycling:glass": "yes",
    "recycling:paper": "yes"
  }
},
{
  "type": "node",
  "id": 3661325995,
  "lat": 49.1837765,
  "lon": 15.4614524,
  "tags": {
    "amenity": "recycling",
    "recycling:cans": "no",
    "recycling:clothes": "no",
    "recycling:glass": "yes",
    "recycling:paper": "yes"
  }
},
{
  "type": "node",
  "id": 2638958274,
  "lat": 49.2828038,
  "lon": 15.4407971,
  "tags": {
    "amenity": "recycling",
    "recycling:glass": "yes",
    "recycling:paper": "yes",
    "recycling:plastic": "yes"
  }
},
{
  "type": "node",
  "id": 3079904096,
  "lat": 49.2932658,
  "lon": 15.4858806,
  "tags": {
    "amenity": "recycling",
    "recycling:glass": "yes",
    "recycling:paper": "yes"
  }
},
{
  "type": "node",
  "id": 7791666908,
  "lat": 49.4318527,
  "lon": 15.2184361,
  "tags": {
    "amenity": "recycling"
  }
},
{
  "type": "node",
  "id": 7787742007,
  "lat": 49.3163269,
  "lon": 15.3267021,
  "tags": {
    "amenity": "recycling"
  }
},
{
  "type": "node",
  "id": 7787720432,
  "lat": 49.3215180,
  "lon": 15.3291128,
  "tags": {
    "amenity": "recycling"
  }
},
{
  "type": "node",
  "id": 2131400445,
  "lat": 49.3107855,
  "lon": 15.3924601,
  "tags": {
    "amenity": "recycling",
    "recycling:glass": "yes",
    "recycling:paper": "yes"
  }
},
{
  "type": "node",
  "id": 1941177308,
  "lat": 49.3122988,
  "lon": 15.3964570,
  "tags": {
    "amenity": "recycling"
  }
},
{
  "type": "node",
  "id": 1678955483,
  "lat": 49.3139178,
  "lon": 15.3936376,
  "tags": {
    "amenity": "recycling"
  }
},
{
  "type": "node",
  "id": 2131400464,
  "lat": 49.3187494,
  "lon": 15.3936189,
  "tags": {
    "amenity": "recycling"
  }
},
{
  "type": "node",
  "id": 1806457597,
  "lat": 49.4376605,
  "lon": 15.5054777,
  "tags": {
    "amenity": "recycling"
  }
},
{
  "type": "node",
  "id": 5628307692,
  "lat": 49.2352398,
  "lon": 15.6054526,
  "tags": {
    "amenity": "recycling"
  }
},
{
  "type": "node",
  "id": 2000787986,
  "lat": 49.2721452,
  "lon": 15.6733776,
  "tags": {
    "amenity": "recycling"
  }
},
{
  "type": "node",
  "id": 4318156602,
  "lat": 49.1231585,
  "lon": 15.8864841,
  "tags": {
    "amenity": "recycling",
    "recycling:glass": "yes",
    "recycling:paper": "yes",
    "recycling:plastic": "yes"
  }
},
{
  "type": "node",
  "id": 4381258223,
  "lat": 49.1977846,
  "lon": 15.8311445,
  "tags": {
    "amenity": "recycling",
    "recycling:glass": "yes",
    "recycling:paper": "yes",
    "recycling:plastic": "yes"
  }
},
{
  "type": "node",
  "id": 1270599631,
  "lat": 49.2188985,
  "lon": 15.8724892,
  "tags": {
    "amenity": "recycling",
    "source": "survey"
  }
},
{
  "type": "node",
  "id": 4415222830,
  "lat": 49.2181010,
  "lon": 15.8674520,
  "tags": {
    "amenity": "recycling",
    "recycling:batteries": "yes",
    "recycling:electronics": "yes",
    "recycling:glass": "yes",
    "recycling:paper": "yes",
    "recycling:plastic": "yes"
  }
},
{
  "type": "node",
  "id": 4415271927,
  "lat": 49.2202303,
  "lon": 15.8691234,
  "tags": {
    "amenity": "recycling",
    "recycling:glass": "yes",
    "recycling:plastic": "yes"
  }
},
{
  "type": "node",
  "id": 1270599652,
  "lat": 49.2239009,
  "lon": 15.8712031,
  "tags": {
    "amenity": "recycling",
    "source": "survey"
  }
},
{
  "type": "node",
  "id": 1270599618,
  "lat": 49.2144000,
  "lon": 15.8875847,
  "tags": {
    "amenity": "recycling",
    "source": "survey;bing"
  }
},
{
  "type": "node",
  "id": 456245697,
  "lat": 49.4033854,
  "lon": 15.5838678,
  "tags": {
    "amenity": "recycling",
    "recycling:glass": "yes",
    "recycling:paper": "yes",
    "recycling:plastic": "yes",
    "source": "survey",
    "type": "container"
  }
},
{
  "type": "node",
  "id": 448166875,
  "lat": 49.4054485,
  "lon": 15.5906199,
  "tags": {
    "amenity": "recycling",
    "name": "Služby města Jihlavy",
    "opening_hours": "Mo-Fr 06:00-19:00; Sa 07:30-12:00",
    "recycling:batteries": "yes",
    "recycling:cans": "yes",
    "recycling:plastic": "yes",
    "recycling:scrap_metal": "yes",
    "recycling:white_goods": "yes"
  }
},
{
  "type": "node",
  "id": 3721557002,
  "lat": 49.6666470,
  "lon": 15.4077861,
  "tags": {
    "amenity": "recycling",
    "recycling:cans": "no",
    "recycling:clothes": "yes",
    "recycling:glass": "no",
    "recycling:paper": "no"
  }
},
{
  "type": "node",
  "id": 1357218271,
  "lat": 49.6485648,
  "lon": 15.4367977,
  "tags": {
    "amenity": "recycling",
    "recycling:glass": "yes",
    "recycling:paper": "yes"
  }
},
{
  "type": "node",
  "id": 1350812739,
  "lat": 49.6649115,
  "lon": 15.4217439,
  "tags": {
    "amenity": "recycling"
  }
},
{
  "type": "node",
  "id": 4308985521,
  "lat": 49.6580232,
  "lon": 15.4588581,
  "tags": {
    "amenity": "recycling",
    "recycling:glass": "yes",
    "recycling:paper": "yes",
    "recycling:plastic": "yes",
    "recycling:scrap_metal": "yes"
  }
},
{
  "type": "node",
  "id": 1409028375,
  "lat": 49.6696305,
  "lon": 15.4178679,
  "tags": {
    "amenity": "recycling",
    "recycling:scrap_metal": "yes"
  }
},
{
  "type": "node",
  "id": 2000451816,
  "lat": 49.7707582,
  "lon": 15.2711713,
  "tags": {
    "amenity": "recycling"
  }
},
{
  "type": "node",
  "id": 261050780,
  "lat": 49.5408235,
  "lon": 15.6605418,
  "tags": {
    "amenity": "recycling",
    "created_by": "JOSM"
  }
},
{
  "type": "node",
  "id": 261050788,
  "lat": 49.5401089,
  "lon": 15.6598077,
  "tags": {
    "amenity": "recycling",
    "created_by": "JOSM"
  }
},
{
  "type": "node",
  "id": 261058745,
  "lat": 49.5156845,
  "lon": 15.6944039,
  "tags": {
    "amenity": "recycling"
  }
},
{
  "type": "node",
  "id": 3721551464,
  "lat": 49.7176553,
  "lon": 15.6690117,
  "tags": {
    "amenity": "recycling",
    "recycling:cans": "no",
    "recycling:clothes": "yes",
    "recycling:glass": "yes",
    "recycling:paper": "yes"
  }
},
{
  "type": "node",
  "id": 3714219261,
  "lat": 49.7173273,
  "lon": 15.6756462,
  "tags": {
    "amenity": "recycling",
    "recycling:cans": "no",
    "recycling:clothes": "no",
    "recycling:glass": "yes",
    "recycling:paper": "yes"
  }
},
{
  "type": "node",
  "id": 3733763776,
  "lat": 49.8157521,
  "lon": 15.5354816,
  "tags": {
    "amenity": "recycling",
    "recycling:cans": "no",
    "recycling:glass": "yes",
    "recycling:paper": "yes"
  }
},
{
  "type": "node",
  "id": 3887278806,
  "lat": 49.8706763,
  "lon": 15.5816812,
  "tags": {
    "amenity": "recycling"
  }
},
{
  "type": "node",
  "id": 4831591365,
  "lat": 49.9220962,
  "lon": 15.7804086,
  "tags": {
    "amenity": "recycling"
  }
},
{
  "type": "node",
  "id": 4826551480,
  "lat": 49.9191600,
  "lon": 15.8059306,
  "tags": {
    "amenity": "recycling"
  }
},
{
  "type": "node",
  "id": 1825785512,
  "lat": 49.8343647,
  "lon": 15.8907008,
  "tags": {
    "amenity": "recycling"
  }
},
{
  "type": "node",
  "id": 3269175577,
  "lat": 49.8468203,
  "lon": 15.9229920,
  "tags": {
    "amenity": "recycling",
    "source": "survey"
  }
},
{
  "type": "node",
  "id": 722689305,
  "lat": 49.1098239,
  "lon": 16.0559316,
  "tags": {
    "amenity": "recycling",
    "recycling:batteries": "yes",
    "recycling:cans": "yes",
    "recycling:clothes": "yes",
    "recycling:glass": "yes",
    "recycling:paper": "yes",
    "recycling:scrap_metal": "yes"
  }
},
{
  "type": "node",
  "id": 1223739075,
  "lat": 49.1667903,
  "lon": 16.1302161,
  "tags": {
    "amenity": "recycling",
    "recycling:glass": "yes",
    "recycling:paper": "yes",
    "recycling:plastic_bags": "yes",
    "recycling:plastic_bottles": "yes",
    "recycling:plastic_packaging": "yes"
  }
},
{
  "type": "node",
  "id": 1223738454,
  "lat": 49.1914704,
  "lon": 16.1426784,
  "tags": {
    "amenity": "recycling",
    "recycling:glass": "yes",
    "recycling:paper": "yes",
    "recycling:plastic_bags": "yes",
    "recycling:plastic_bottles": "yes",
    "recycling:plastic_packaging": "yes"
  }
},
{
  "type": "node",
  "id": 3923673891,
  "lat": 49.2729086,
  "lon": 16.0627617,
  "tags": {
    "amenity": "recycling"
  }
},
{
  "type": "node",
  "id": 1223738517,
  "lat": 49.2066346,
  "lon": 16.1522287,
  "tags": {
    "amenity": "recycling",
    "recycling:glass": "yes",
    "recycling:paper": "yes",
    "recycling:plastic_bags": "yes",
    "recycling:plastic_bottles": "yes",
    "recycling:plastic_packaging": "yes"
  }
},
{
  "type": "node",
  "id": 4307758118,
  "lat": 49.3527300,
  "lon": 16.0165217,
  "tags": {
    "amenity": "recycling"
  }
},
{
  "type": "node",
  "id": 982325630,
  "lat": 49.4325774,
  "lon": 16.1240351,
  "tags": {
    "amenity": "recycling",
    "recycling:glass": "yes",
    "recycling:paper": "yes"
  }
},
{
  "type": "node",
  "id": 824067909,
  "lat": 49.3315402,
  "lon": 16.1965430,
  "tags": {
    "amenity": "recycling",
    "name": "Alfa Scrap šrot",
    "recycling:scrap_metal": "yes",
    "website": "http://www.alfasrot.cz/"
  }
},
{
  "type": "node",
  "id": 3068562155,
  "lat": 49.3149606,
  "lon": 16.2863340,
  "tags": {
    "amenity": "recycling"
  }
},
{
  "type": "node",
  "id": 3323159120,
  "lat": 49.3264035,
  "lon": 16.2700474,
  "tags": {
    "amenity": "recycling"
  }
},
{
  "type": "node",
  "id": 4166028528,
  "lat": 49.4506853,
  "lon": 16.3128438,
  "tags": {
    "amenity": "recycling"
  }
},
{
  "type": "node",
  "id": 4166028505,
  "lat": 49.4526985,
  "lon": 16.3253479,
  "tags": {
    "amenity": "recycling"
  }
},
{
  "type": "node",
  "id": 347315809,
  "lat": 49.1141805,
  "lon": 16.4266422,
  "tags": {
    "amenity": "recycling"
  }
},
{
  "type": "node",
  "id": 347315816,
  "lat": 49.1143135,
  "lon": 16.4265069,
  "tags": {
    "amenity": "recycling"
  }
},
{
  "type": "node",
  "id": 347315822,
  "lat": 49.1133280,
  "lon": 16.4288813,
  "tags": {
    "amenity": "recycling"
  }
},
{
  "type": "node",
  "id": 353045675,
  "lat": 49.1263291,
  "lon": 16.4600185,
  "tags": {
    "amenity": "recycling"
  }
},
{
  "type": "node",
  "id": 248134379,
  "lat": 49.1082859,
  "lon": 16.4628990,
  "tags": {
    "amenity": "recycling",
    "created_by": "JOSM"
  }
},
{
  "type": "node",
  "id": 248414114,
  "lat": 49.1046675,
  "lon": 16.4676998,
  "tags": {
    "amenity": "recycling"
  }
},
{
  "type": "node",
  "id": 665122801,
  "lat": 49.1139432,
  "lon": 16.4683328,
  "tags": {
    "amenity": "recycling"
  }
},
{
  "type": "node",
  "id": 355624112,
  "lat": 49.1148419,
  "lon": 16.4716988,
  "tags": {
    "amenity": "recycling"
  }
},
{
  "type": "node",
  "id": 353045722,
  "lat": 49.1181501,
  "lon": 16.4731026,
  "tags": {
    "amenity": "recycling"
  }
},
{
  "type": "node",
  "id": 452668248,
  "lat": 49.1195744,
  "lon": 16.4757226,
  "tags": {
    "amenity": "recycling",
    "source": "survey"
  }
},
{
  "type": "node",
  "id": 8440766239,
  "lat": 49.1665633,
  "lon": 16.5544303,
  "tags": {
    "amenity": "recycling"
  }
},
{
  "type": "node",
  "id": 2465786896,
  "lat": 49.2467717,
  "lon": 16.5053116,
  "tags": {
    "amenity": "recycling"
  }
},
{
  "type": "node",
  "id": 682205902,
  "lat": 49.2063070,
  "lon": 16.5538139,
  "tags": {
    "amenity": "recycling",
    "source": "survey"
  }
},
{
  "type": "node",
  "id": 682205884,
  "lat": 49.2045839,
  "lon": 16.5557960,
  "tags": {
    "amenity": "recycling",
    "recycling:plastic_bottles": "yes",
    "source": "survey"
  }
},
{
  "type": "node",
  "id": 2465786878,
  "lat": 49.2347603,
  "lon": 16.5241574,
  "tags": {
    "amenity": "recycling"
  }
},
{
  "type": "node",
  "id": 2468825172,
  "lat": 49.2584567,
  "lon": 16.5063250,
  "tags": {
    "amenity": "recycling"
  }
},
{
  "type": "node",
  "id": 3180997542,
  "lat": 49.2904566,
  "lon": 16.4990173,
  "tags": {
    "amenity": "recycling"
  }
},
{
  "type": "node",
  "id": 2465487148,
  "lat": 49.2680759,
  "lon": 16.5292675,
  "tags": {
    "amenity": "recycling"
  }
},
{
  "type": "node",
  "id": 8503627297,
  "lat": 49.1666895,
  "lon": 16.5786892,
  "tags": {
    "amenity": "recycling",
    "name": "Waste collection"
  }
},
{
  "type": "node",
  "id": 6735509623,
  "lat": 49.1784724,
  "lon": 16.5924082,
  "tags": {
    "amenity": "recycling"
  }
},
{
  "type": "node",
  "id": 2784431203,
  "lat": 49.1787375,
  "lon": 16.5987540,
  "tags": {
    "amenity": "recycling",
    "recycling:glass": "yes"
  }
},
{
  "type": "node",
  "id": 6735519249,
  "lat": 49.1805699,
  "lon": 16.5947861,
  "tags": {
    "amenity": "recycling"
  }
},
{
  "type": "node",
  "id": 6735519408,
  "lat": 49.1803056,
  "lon": 16.5951895,
  "tags": {
    "amenity": "recycling"
  }
},
{
  "type": "node",
  "id": 1360945688,
  "lat": 49.1557187,
  "lon": 16.6252550,
  "tags": {
    "amenity": "recycling",
    "recycling:glass": "yes",
    "recycling:paper": "yes"
  }
},
{
  "type": "node",
  "id": 3824606936,
  "lat": 49.1469696,
  "lon": 16.6685782,
  "tags": {
    "amenity": "recycling",
    "recycling:cans": "no",
    "recycling:clothes": "yes",
    "recycling:glass": "no",
    "recycling:glass_bottles": "no",
    "recycling:paper": "no",
    "recycling:plastic": "no"
  }
},
{
  "type": "node",
  "id": 404738512,
  "lat": 49.1899270,
  "lon": 16.6291899,
  "tags": {
    "amenity": "recycling",
    "recycling:paper": "yes",
    "recycling:plastic_bottles": "yes",
    "source": "survey"
  }
},
{
  "type": "node",
  "id": 404738513,
  "lat": 49.1898332,
  "lon": 16.6290420,
  "tags": {
    "amenity": "recycling",
    "recycling:glass": "yes",
    "source": "survey"
  }
},
{
  "type": "node",
  "id": 3939188922,
  "lat": 49.1810819,
  "lon": 16.6705210,
  "tags": {
    "amenity": "recycling"
  }
},
{
  "type": "node",
  "id": 8286483626,
  "lat": 49.0899654,
  "lon": 16.7339114,
  "tags": {
    "amenity": "recycling"
  }
},
{
  "type": "node",
  "id": 4227372149,
  "lat": 49.1520502,
  "lon": 16.7438045,
  "tags": {
    "amenity": "recycling"
  }
},
{
  "type": "node",
  "id": 8467772228,
  "lat": 49.1642962,
  "lon": 16.7336835,
  "tags": {
    "amenity": "recycling",
    "recycling:green_waste": "yes"
  }
},
{
  "type": "node",
  "id": 661443973,
  "lat": 49.2312462,
  "lon": 16.5699257,
  "tags": {
    "amenity": "recycling",
    "source": "knowledge"
  }
},
{
  "type": "node",
  "id": 677605067,
  "lat": 49.2307420,
  "lon": 16.5715917,
  "tags": {
    "amenity": "recycling"
  }
},
{
  "type": "node",
  "id": 377064826,
  "lat": 49.1958580,
  "lon": 16.6430265,
  "tags": {
    "amenity": "recycling",
    "recycling:paper": "yes",
    "recycling:plastic_bottles": "yes"
  }
},
{
  "type": "node",
  "id": 383991880,
  "lat": 49.1951763,
  "lon": 16.6459729,
  "tags": {
    "amenity": "recycling",
    "recycling:glass": "yes"
  }
},
{
  "type": "node",
  "id": 378321216,
  "lat": 49.2880016,
  "lon": 16.6302104,
  "tags": {
    "amenity": "recycling"
  }
},
{
  "type": "node",
  "id": 1483497985,
  "lat": 49.2024582,
  "lon": 16.6882715,
  "tags": {
    "amenity": "recycling"
  }
},
{
  "type": "node",
  "id": 5809020911,
  "lat": 49.2507747,
  "lon": 16.7340290,
  "tags": {
    "amenity": "recycling"
  }
},
{
  "type": "node",
  "id": 318323263,
  "lat": 49.3425862,
  "lon": 16.4266692,
  "tags": {
    "amenity": "recycling"
  }
},
{
  "type": "node",
  "id": 3452884106,
  "lat": 49.5065320,
  "lon": 16.5239831,
  "tags": {
    "amenity": "recycling"
  }
},
{
  "type": "node",
  "id": 2736220757,
  "lat": 49.3311436,
  "lon": 16.6707060,
  "tags": {
    "amenity": "recycling",
    "name": "Sběrný dvůr"
  }
},
{
  "type": "node",
  "id": 1233043509,
  "lat": 49.3810140,
  "lon": 16.7137229,
  "tags": {
    "amenity": "recycling",
    "recycling:cans": "yes",
    "recycling:glass": "yes",
    "recycling:paper": "yes",
    "recycling:plastic_bags": "yes",
    "recycling:plastic_bottles": "yes",
    "recycling:plastic_packaging": "yes",
    "source": "survey"
  }
},
{
  "type": "node",
  "id": 1822620948,
  "lat": 49.4076579,
  "lon": 16.6388962,
  "tags": {
    "amenity": "recycling",
    "recycling:glass": "yes",
    "recycling:plastic": "yes"
  }
},
{
  "type": "node",
  "id": 2495529840,
  "lat": 49.4488206,
  "lon": 16.7149373,
  "tags": {
    "amenity": "recycling"
  }
},
{
  "type": "node",
  "id": 2972059279,
  "lat": 49.4674647,
  "lon": 16.7224492,
  "tags": {
    "amenity": "recycling"
  }
},
{
  "type": "node",
  "id": 2998678928,
  "lat": 49.5073132,
  "lon": 16.7320813,
  "tags": {
    "amenity": "recycling"
  }
},
{
  "type": "node",
  "id": 1663154395,
  "lat": 49.5822165,
  "lon": 15.9650194,
  "tags": {
    "amenity": "recycling",
    "recycling:glass": "yes",
    "recycling:paper": "yes",
    "recycling:plastic": "yes"
  }
},
{
  "type": "node",
  "id": 1663154353,
  "lat": 49.5819623,
  "lon": 16.0015243,
  "tags": {
    "amenity": "recycling",
    "recycling:glass": "yes",
    "recycling:paper": "yes",
    "recycling:plastic": "yes"
  }
},
{
  "type": "node",
  "id": 443626547,
  "lat": 49.5776465,
  "lon": 16.1886600,
  "tags": {
    "amenity": "recycling",
    "recycling:batteries": "no",
    "recycling:cans": "no",
    "recycling:clothes": "no",
    "recycling:glass": "no",
    "recycling:paper": "no",
    "recycling:pet": "yes",
    "recycling:scrap_metal": "no"
  }
},
{
  "type": "node",
  "id": 1073787369,
  "lat": 49.5103417,
  "lon": 16.2551441,
  "tags": {
    "amenity": "recycling",
    "name": "Sběrný dvůr"
  }
},
{
  "type": "node",
  "id": 443861763,
  "lat": 49.5234585,
  "lon": 16.2593687,
  "tags": {
    "amenity": "recycling",
    "recycling:glass": "yes",
    "recycling:paper": "yes"
  }
},
{
  "type": "node",
  "id": 1276450639,
  "lat": 49.7439352,
  "lon": 16.0657975,
  "tags": {
    "amenity": "recycling"
  }
},
{
  "type": "node",
  "id": 1249807634,
  "lat": 49.8522199,
  "lon": 16.1439337,
  "tags": {
    "amenity": "recycling",
    "recycling:glass": "yes",
    "recycling:paper": "yes",
    "recycling:plastic": "yes"
  }
},
{
  "type": "node",
  "id": 6515457494,
  "lat": 49.6252586,
  "lon": 16.3720985,
  "tags": {
    "amenity": "recycling",
    "recycling:glass": "yes",
    "recycling:paper": "yes",
    "recycling:plastic": "yes"
  }
},
{
  "type": "node",
  "id": 2954646559,
  "lat": 49.5807334,
  "lon": 16.7255027,
  "tags": {
    "amenity": "recycling"
  }
},
{
  "type": "node",
  "id": 3089882573,
  "lat": 49.5924163,
  "lon": 16.7621791,
  "tags": {
    "amenity": "recycling"
  }
},
{
  "type": "node",
  "id": 2954646994,
  "lat": 49.6313524,
  "lon": 16.7078827,
  "tags": {
    "amenity": "recycling",
    "recycling:clothes": "yes",
    "recycling:paper": "yes"
  }
},
{
  "type": "node",
  "id": 2954647023,
  "lat": 49.6319966,
  "lon": 16.7055004,
  "tags": {
    "amenity": "recycling"
  }
},
{
  "type": "node",
  "id": 3361819832,
  "lat": 49.6305586,
  "lon": 16.7093296,
  "tags": {
    "addr:city": "Jevíčko",
    "addr:postcode": "56943",
    "addr:street": "M. Mikuláše",
    "amenity": "recycling",
    "recycling:clothes": "no",
    "recycling:glass": "yes",
    "recycling:glass_bottles": "yes",
    "recycling:paper": "yes",
    "recycling:plastic": "yes"
  }
},
{
  "type": "node",
  "id": 1437221066,
  "lat": 49.7494638,
  "lon": 16.4648351,
  "tags": {
    "amenity": "recycling"
  }
},
{
  "type": "node",
  "id": 4882172398,
  "lat": 49.8678776,
  "lon": 16.3686779,
  "tags": {
    "amenity": "recycling"
  }
},
{
  "type": "node",
  "id": 4884971905,
  "lat": 49.8670803,
  "lon": 16.3656218,
  "tags": {
    "amenity": "recycling"
  }
},
{
  "type": "node",
  "id": 6205865386,
  "lat": 49.7578683,
  "lon": 16.6857652,
  "tags": {
    "amenity": "recycling"
  }
},
{
  "type": "node",
  "id": 6205833191,
  "lat": 49.7587966,
  "lon": 16.6858635,
  "tags": {
    "amenity": "recycling"
  }
},
{
  "type": "node",
  "id": 2577446970,
  "lat": 48.8517690,
  "lon": 17.1336412,
  "tags": {
    "amenity": "recycling"
  }
},
{
  "type": "node",
  "id": 2577857723,
  "lat": 48.8533806,
  "lon": 17.1378887,
  "tags": {
    "amenity": "recycling"
  }
},
{
  "type": "node",
  "id": 2680419763,
  "lat": 48.9147756,
  "lon": 16.8564210,
  "tags": {
    "amenity": "recycling",
    "source": "survey;Bing"
  }
},
{
  "type": "node",
  "id": 6962950750,
  "lat": 49.0682802,
  "lon": 16.8488519,
  "tags": {
    "amenity": "recycling"
  }
},
{
  "type": "node",
  "id": 6963277461,
  "lat": 49.0717655,
  "lon": 16.8449761,
  "tags": {
    "amenity": "recycling"
  }
},
{
  "type": "node",
  "id": 2558870259,
  "lat": 48.8975223,
  "lon": 17.3162000,
  "tags": {
    "amenity": "recycling"
  }
},
{
  "type": "node",
  "id": 380441063,
  "lat": 48.9476731,
  "lon": 17.3747553,
  "tags": {
    "amenity": "recycling",
    "recycling:glass": "yes",
    "recycling:paper": "yes"
  }
},
{
  "type": "node",
  "id": 5340893321,
  "lat": 49.0431231,
  "lon": 17.3955856,
  "tags": {
    "amenity": "recycling",
    "name": "PURUPLAST",
    "name:cs": "PURUPLAST"
  }
},
{
  "type": "node",
  "id": 2863260226,
  "lat": 48.9709198,
  "lon": 17.5872822,
  "tags": {
    "amenity": "recycling"
  }
},
{
  "type": "node",
  "id": 3520760779,
  "lat": 49.0426833,
  "lon": 17.4664773,
  "tags": {
    "amenity": "recycling"
  }
},
{
  "type": "node",
  "id": 1986994100,
  "lat": 49.0469079,
  "lon": 17.4627821,
  "tags": {
    "amenity": "recycling",
    "recycling:batteries": "yes"
  }
},
{
  "type": "node",
  "id": 1722260976,
  "lat": 49.0331120,
  "lon": 17.6845710,
  "tags": {
    "amenity": "recycling",
    "name": "Sběrný dvůr"
  }
},
{
  "type": "node",
  "id": 4415976385,
  "lat": 49.1132392,
  "lon": 17.1726614,
  "tags": {
    "amenity": "recycling"
  }
},
{
  "type": "node",
  "id": 3023078845,
  "lat": 49.3758804,
  "lon": 16.8806975,
  "tags": {
    "amenity": "recycling"
  }
},
{
  "type": "node",
  "id": 2983767936,
  "lat": 49.4115112,
  "lon": 16.8220124,
  "tags": {
    "amenity": "recycling"
  }
},
{
  "type": "node",
  "id": 1165935895,
  "lat": 49.4325918,
  "lon": 16.8135561,
  "tags": {
    "amenity": "recycling",
    "recycling:glass": "yes",
    "recycling:plastic_bags": "yes",
    "recycling:plastic_bottles": "yes",
    "recycling:plastic_packaging": "yes"
  }
},
{
  "type": "node",
  "id": 3065835198,
  "lat": 49.4093607,
  "lon": 16.9038045,
  "tags": {
    "amenity": "recycling"
  }
},
{
  "type": "node",
  "id": 2968008480,
  "lat": 49.5052228,
  "lon": 16.9868548,
  "tags": {
    "amenity": "recycling"
  }
},
{
  "type": "node",
  "id": 3596057526,
  "lat": 49.4713143,
  "lon": 17.0160570,
  "tags": {
    "amenity": "recycling"
  }
},
{
  "type": "node",
  "id": 1647002011,
  "lat": 49.4702149,
  "lon": 17.0720482,
  "tags": {
    "amenity": "recycling"
  }
},
{
  "type": "node",
  "id": 3507288891,
  "lat": 49.4200075,
  "lon": 17.1407674,
  "tags": {
    "addr:conscriptionnumber": "187",
    "addr:housenumber": "187",
    "addr:place": "Výšovice",
    "addr:postcode": "79809",
    "amenity": "recycling",
    "name": "DOKOV",
    "ref:ruian:addr": "73650293"
  }
},
{
  "type": "node",
  "id": 3337922100,
  "lat": 49.4686320,
  "lon": 17.1084979,
  "tags": {
    "amenity": "recycling",
    "source": "uhul:ortofoto"
  }
},
{
  "type": "node",
  "id": 3192074103,
  "lat": 49.4751867,
  "lon": 17.0922975,
  "tags": {
    "amenity": "recycling",
    "source": "uhul:ortofoto"
  }
},
{
  "type": "node",
  "id": 2075924634,
  "lat": 49.4700951,
  "lon": 17.1160480,
  "tags": {
    "amenity": "recycling",
    "source": "uhul:ortofoto"
  }
},
{
  "type": "node",
  "id": 970398478,
  "lat": 49.1060407,
  "lon": 17.3931029,
  "tags": {
    "amenity": "recycling",
    "fixme": "domovní odpad",
    "source": "survey"
  }
},
{
  "type": "node",
  "id": 970398509,
  "lat": 49.1065623,
  "lon": 17.3924958,
  "tags": {
    "amenity": "recycling",
    "fixme": "jenom plasty",
    "source": "survey"
  }
},
{
  "type": "node",
  "id": 6020198842,
  "lat": 49.2290250,
  "lon": 17.3167636,
  "tags": {
    "amenity": "recycling"
  }
},
{
  "type": "node",
  "id": 4126694995,
  "lat": 49.2096468,
  "lon": 17.5203617,
  "tags": {
    "amenity": "recycling"
  }
},
{
  "type": "node",
  "id": 684483357,
  "lat": 49.4595434,
  "lon": 17.4520145,
  "tags": {
    "amenity": "recycling"
  }
},
{
  "type": "node",
  "id": 684483528,
  "lat": 49.4616520,
  "lon": 17.4538955,
  "tags": {
    "amenity": "recycling"
  }
},
{
  "type": "node",
  "id": 684483530,
  "lat": 49.4619915,
  "lon": 17.4538907,
  "tags": {
    "amenity": "recycling"
  }
},
{
  "type": "node",
  "id": 3084413714,
  "lat": 49.4632098,
  "lon": 17.4556112,
  "tags": {
    "amenity": "recycling"
  }
},
{
  "type": "node",
  "id": 3084413924,
  "lat": 49.4793379,
  "lon": 17.4562441,
  "tags": {
    "amenity": "recycling"
  }
},
{
  "type": "node",
  "id": 2520910439,
  "lat": 49.5428057,
  "lon": 16.7887027,
  "tags": {
    "amenity": "recycling"
  }
},
{
  "type": "node",
  "id": 2518805323,
  "lat": 49.5451760,
  "lon": 16.8485015,
  "tags": {
    "amenity": "recycling"
  }
},
{
  "type": "node",
  "id": 2518805347,
  "lat": 49.5473641,
  "lon": 16.8637955,
  "tags": {
    "amenity": "recycling"
  }
},
{
  "type": "node",
  "id": 2465093682,
  "lat": 49.5354258,
  "lon": 16.8698767,
  "tags": {
    "amenity": "recycling"
  }
},
{
  "type": "node",
  "id": 7473226922,
  "lat": 49.5530041,
  "lon": 16.9554022,
  "tags": {
    "amenity": "recycling",
    "recycling:glass": "yes"
  }
},
{
  "type": "node",
  "id": 7500471007,
  "lat": 49.5535610,
  "lon": 16.9544841,
  "tags": {
    "amenity": "recycling",
    "name": "Sběr oděvů a obuvi"
  }
},
{
  "type": "node",
  "id": 7758238449,
  "lat": 49.5531190,
  "lon": 16.9550196,
  "tags": {
    "amenity": "recycling"
  }
},
{
  "type": "node",
  "id": 2943461738,
  "lat": 49.5965873,
  "lon": 16.8845768,
  "tags": {
    "amenity": "recycling"
  }
},
{
  "type": "node",
  "id": 2961895843,
  "lat": 49.5953285,
  "lon": 16.8833205,
  "tags": {
    "amenity": "recycling"
  }
},
{
  "type": "node",
  "id": 3101112796,
  "lat": 49.6629436,
  "lon": 16.7867154,
  "tags": {
    "amenity": "recycling"
  }
},
{
  "type": "node",
  "id": 3101113256,
  "lat": 49.6656485,
  "lon": 16.8101068,
  "tags": {
    "amenity": "recycling"
  }
},
{
  "type": "node",
  "id": 3113652303,
  "lat": 49.6499793,
  "lon": 16.8403373,
  "tags": {
    "amenity": "recycling"
  }
},
{
  "type": "node",
  "id": 3113654527,
  "lat": 49.6966040,
  "lon": 16.7965396,
  "tags": {
    "amenity": "recycling"
  }
},
{
  "type": "node",
  "id": 3586378352,
  "lat": 49.6802867,
  "lon": 16.9303134,
  "tags": {
    "amenity": "recycling"
  }
},
{
  "type": "node",
  "id": 1644017023,
  "lat": 49.5428867,
  "lon": 16.9954991,
  "tags": {
    "amenity": "recycling"
  }
},
{
  "type": "node",
  "id": 3067617839,
  "lat": 49.5771348,
  "lon": 16.9869557,
  "tags": {
    "amenity": "recycling"
  }
},
{
  "type": "node",
  "id": 4345154162,
  "lat": 49.5463897,
  "lon": 17.1037086,
  "tags": {
    "amenity": "recycling",
    "recycling:beverage_cartons": "yes",
    "recycling:glass": "yes",
    "recycling:paper": "yes",
    "recycling:plastic": "yes"
  }
},
{
  "type": "node",
  "id": 2544920604,
  "lat": 49.5577342,
  "lon": 17.1425480,
  "tags": {
    "amenity": "recycling"
  }
},
{
  "type": "node",
  "id": 3287549529,
  "lat": 49.5547121,
  "lon": 17.1455778,
  "tags": {
    "amenity": "recycling"
  }
},
{
  "type": "node",
  "id": 3393593920,
  "lat": 49.5358433,
  "lon": 17.1939885,
  "tags": {
    "amenity": "recycling"
  }
},
{
  "type": "node",
  "id": 3287669452,
  "lat": 49.5717411,
  "lon": 17.1799564,
  "tags": {
    "amenity": "recycling"
  }
},
{
  "type": "node",
  "id": 3009458234,
  "lat": 49.7046341,
  "lon": 17.0178362,
  "tags": {
    "amenity": "recycling"
  }
},
{
  "type": "node",
  "id": 3009458266,
  "lat": 49.7053675,
  "lon": 17.0196215,
  "tags": {
    "amenity": "recycling"
  }
},
{
  "type": "node",
  "id": 3009458343,
  "lat": 49.7060360,
  "lon": 17.0198195,
  "tags": {
    "amenity": "recycling"
  }
},
{
  "type": "node",
  "id": 3010052026,
  "lat": 49.7048055,
  "lon": 17.0654409,
  "tags": {
    "amenity": "recycling"
  }
},
{
  "type": "node",
  "id": 2710035966,
  "lat": 49.7305967,
  "lon": 16.9536768,
  "tags": {
    "amenity": "recycling",
    "recycling:glass": "yes",
    "recycling:paper": "yes",
    "recycling:plastic": "yes"
  }
},
{
  "type": "node",
  "id": 3009890312,
  "lat": 49.7205221,
  "lon": 17.0316347,
  "tags": {
    "amenity": "recycling"
  }
},
{
  "type": "node",
  "id": 2685854016,
  "lat": 49.7200089,
  "lon": 17.0834519,
  "tags": {
    "amenity": "recycling"
  }
},
{
  "type": "node",
  "id": 2470506153,
  "lat": 49.7226203,
  "lon": 17.0895775,
  "tags": {
    "amenity": "recycling"
  }
},
{
  "type": "node",
  "id": 3964609184,
  "lat": 49.5872690,
  "lon": 17.2284153,
  "tags": {
    "amenity": "recycling"
  }
},
{
  "type": "node",
  "id": 3437787249,
  "lat": 49.5855679,
  "lon": 17.2414558,
  "tags": {
    "amenity": "recycling"
  }
},
{
  "type": "node",
  "id": 3437787256,
  "lat": 49.5864181,
  "lon": 17.2424129,
  "tags": {
    "amenity": "recycling"
  }
},
{
  "type": "node",
  "id": 3437787267,
  "lat": 49.5868892,
  "lon": 17.2429543,
  "tags": {
    "amenity": "recycling"
  }
},
{
  "type": "node",
  "id": 2479820864,
  "lat": 49.5941672,
  "lon": 17.2137110,
  "tags": {
    "amenity": "recycling"
  }
},
{
  "type": "node",
  "id": 2479820866,
  "lat": 49.5944020,
  "lon": 17.2143887,
  "tags": {
    "amenity": "recycling"
  }
},
{
  "type": "node",
  "id": 2479820868,
  "lat": 49.5949406,
  "lon": 17.2149577,
  "tags": {
    "amenity": "recycling"
  }
},
{
  "type": "node",
  "id": 3095744728,
  "lat": 49.5935141,
  "lon": 17.2307723,
  "tags": {
    "amenity": "recycling"
  }
},
{
  "type": "node",
  "id": 3095747429,
  "lat": 49.5936930,
  "lon": 17.2309349,
  "tags": {
    "amenity": "recycling"
  }
},
{
  "type": "node",
  "id": 3093517974,
  "lat": 49.5974563,
  "lon": 17.2314059,
  "tags": {
    "amenity": "recycling"
  }
},
{
  "type": "node",
  "id": 3095747430,
  "lat": 49.5951768,
  "lon": 17.2311481,
  "tags": {
    "amenity": "recycling"
  }
},
{
  "type": "node",
  "id": 3095744716,
  "lat": 49.5890069,
  "lon": 17.2399804,
  "tags": {
    "amenity": "recycling"
  }
},
{
  "type": "node",
  "id": 3095744722,
  "lat": 49.5905373,
  "lon": 17.2380784,
  "tags": {
    "amenity": "recycling"
  }
},
{
  "type": "node",
  "id": 3095744726,
  "lat": 49.5906998,
  "lon": 17.2369023,
  "tags": {
    "amenity": "recycling"
  }
},
{
  "type": "node",
  "id": 3095287387,
  "lat": 49.5986425,
  "lon": 17.2415686,
  "tags": {
    "amenity": "recycling"
  }
},
{
  "type": "node",
  "id": 3095287388,
  "lat": 49.5992373,
  "lon": 17.2395339,
  "tags": {
    "amenity": "recycling"
  }
},
{
  "type": "node",
  "id": 3093517976,
  "lat": 49.6011805,
  "lon": 17.2327367,
  "tags": {
    "amenity": "recycling"
  }
},
{
  "type": "node",
  "id": 3093517977,
  "lat": 49.6015150,
  "lon": 17.2323189,
  "tags": {
    "amenity": "recycling"
  }
},
{
  "type": "node",
  "id": 3095287392,
  "lat": 49.6013793,
  "lon": 17.2348015,
  "tags": {
    "amenity": "recycling"
  }
},
{
  "type": "node",
  "id": 4693804900,
  "lat": 49.5788329,
  "lon": 17.2514681,
  "tags": {
    "amenity": "recycling",
    "recycling:aluminium": "yes",
    "recycling:batteries": "yes",
    "recycling:bottles": "yes",
    "recycling:cans": "yes",
    "recycling:cardboard": "yes",
    "recycling:clothes": "yes",
    "recycling:electrical_items": "yes",
    "recycling:glass": "yes",
    "recycling:light_bulbs": "yes",
    "recycling:paper": "yes",
    "recycling:plastic": "yes",
    "recycling:scrap_metal": "yes",
    "recycling:tetrapak": "yes",
    "recycling:waste": "yes"
  }
},
{
  "type": "node",
  "id": 2688568518,
  "lat": 49.5767556,
  "lon": 17.2715025,
  "tags": {
    "amenity": "recycling"
  }
},
{
  "type": "node",
  "id": 2610901698,
  "lat": 49.5940756,
  "lon": 17.2545597,
  "tags": {
    "amenity": "recycling"
  }
},
{
  "type": "node",
  "id": 2610901712,
  "lat": 49.5943394,
  "lon": 17.2544025,
  "tags": {
    "amenity": "recycling"
  }
},
{
  "type": "node",
  "id": 2641575198,
  "lat": 49.5944222,
  "lon": 17.2549986,
  "tags": {
    "amenity": "recycling"
  }
},
{
  "type": "node",
  "id": 2248611517,
  "lat": 49.5956745,
  "lon": 17.2620246,
  "tags": {
    "amenity": "recycling"
  }
},
{
  "type": "node",
  "id": 2888903639,
  "lat": 49.5972135,
  "lon": 17.2571957,
  "tags": {
    "amenity": "recycling"
  }
},
{
  "type": "node",
  "id": 2248611514,
  "lat": 49.5930602,
  "lon": 17.2664422,
  "tags": {
    "amenity": "recycling"
  }
},
{
  "type": "node",
  "id": 2249142932,
  "lat": 49.5920729,
  "lon": 17.2647258,
  "tags": {
    "amenity": "recycling"
  }
},
{
  "type": "node",
  "id": 2249142937,
  "lat": 49.5925902,
  "lon": 17.2654962,
  "tags": {
    "amenity": "recycling"
  }
},
{
  "type": "node",
  "id": 2205116049,
  "lat": 49.5927494,
  "lon": 17.2744325,
  "tags": {
    "amenity": "recycling",
    "source": "survey"
  }
},
{
  "type": "node",
  "id": 2249142935,
  "lat": 49.5922188,
  "lon": 17.2730933,
  "tags": {
    "amenity": "recycling"
  }
},
{
  "type": "node",
  "id": 2260266193,
  "lat": 49.5920005,
  "lon": 17.2722110,
  "tags": {
    "amenity": "recycling"
  }
},
{
  "type": "node",
  "id": 2541064546,
  "lat": 49.5939909,
  "lon": 17.2744523,
  "tags": {
    "amenity": "recycling"
  }
},
{
  "type": "node",
  "id": 2213447364,
  "lat": 49.5944977,
  "lon": 17.2658414,
  "tags": {
    "amenity": "recycling"
  }
},
{
  "type": "node",
  "id": 2213447365,
  "lat": 49.5947260,
  "lon": 17.2660898,
  "tags": {
    "amenity": "recycling"
  }
},
{
  "type": "node",
  "id": 2260266212,
  "lat": 49.5960706,
  "lon": 17.2641945,
  "tags": {
    "amenity": "recycling"
  }
},
{
  "type": "node",
  "id": 671276877,
  "lat": 49.6053828,
  "lon": 17.2524585,
  "tags": {
    "amenity": "recycling"
  }
},
{
  "type": "node",
  "id": 671276946,
  "lat": 49.6064974,
  "lon": 17.2523300,
  "tags": {
    "amenity": "recycling"
  }
},
{
  "type": "node",
  "id": 2760467324,
  "lat": 49.5913434,
  "lon": 17.2756175,
  "tags": {
    "amenity": "recycling"
  }
},
{
  "type": "node",
  "id": 899428263,
  "lat": 49.6388252,
  "lon": 17.2337839,
  "tags": {
    "amenity": "recycling"
  }
},
{
  "type": "node",
  "id": 899492498,
  "lat": 49.6355681,
  "lon": 17.2361569,
  "tags": {
    "amenity": "recycling"
  }
},
{
  "type": "node",
  "id": 1830474566,
  "lat": 49.7076668,
  "lon": 17.3929610,
  "tags": {
    "amenity": "recycling"
  }
},
{
  "type": "node",
  "id": 1830474567,
  "lat": 49.7064075,
  "lon": 17.3911049,
  "tags": {
    "amenity": "recycling"
  }
},
{
  "type": "node",
  "id": 3931761502,
  "lat": 49.8350001,
  "lon": 17.5484023,
  "tags": {
    "amenity": "recycling",
    "name": "Sběrný dvůr"
  }
},
{
  "type": "node",
  "id": 2630992480,
  "lat": 49.1090749,
  "lon": 18.0529301,
  "tags": {
    "amenity": "recycling",
    "name": "kontejner na sklo",
    "recycling:glass": "yes"
  }
},
{
  "type": "node",
  "id": 2630993489,
  "lat": 49.1075768,
  "lon": 18.0502756,
  "tags": {
    "amenity": "recycling",
    "name": "kontejner na sklo",
    "recycling:glass": "yes"
  }
},
{
  "type": "node",
  "id": 4190764520,
  "lat": 49.4491589,
  "lon": 18.1609754,
  "tags": {
    "amenity": "recycling",
    "recycling:paper": "yes",
    "recycling:plastic": "yes"
  }
},
{
  "type": "node",
  "id": 1817686881,
  "lat": 49.8302413,
  "lon": 17.6842875,
  "tags": {
    "amenity": "recycling"
  }
},
{
  "type": "node",
  "id": 3825399725,
  "lat": 49.9278747,
  "lon": 17.9783201,
  "tags": {
    "amenity": "recycling",
    "name": "kontejnér na sklo a drobné elektro"
  }
},
{
  "type": "node",
  "id": 1587252854,
  "lat": 49.5465484,
  "lon": 18.2025324,
  "tags": {
    "amenity": "recycling",
    "recycling:cans": "yes",
    "recycling:glass": "yes",
    "recycling:paper": "yes",
    "recycling:scrap_metal": "yes",
    "source": "knowledge"
  }
},
{
  "type": "node",
  "id": 6534710638,
  "lat": 49.5208477,
  "lon": 18.3334437,
  "tags": {
    "amenity": "recycling",
    "recycling:cardboard": "yes",
    "recycling:electrical_items": "yes",
    "recycling:glass": "yes",
    "recycling:plastic": "yes"
  }
},
{
  "type": "node",
  "id": 5571217472,
  "lat": 49.5922298,
  "lon": 18.3618484,
  "tags": {
    "amenity": "recycling"
  }
},
{
  "type": "node",
  "id": 2953502540,
  "lat": 49.7843623,
  "lon": 18.1473308,
  "tags": {
    "amenity": "recycling"
  }
},
{
  "type": "node",
  "id": 2953502537,
  "lat": 49.7831852,
  "lon": 18.1586921,
  "tags": {
    "amenity": "recycling"
  }
},
{
  "type": "node",
  "id": 2953502538,
  "lat": 49.7835314,
  "lon": 18.1542371,
  "tags": {
    "amenity": "recycling"
  }
},
{
  "type": "node",
  "id": 2953502539,
  "lat": 49.7857748,
  "lon": 18.1512496,
  "tags": {
    "amenity": "recycling"
  }
},
{
  "type": "node",
  "id": 2953502541,
  "lat": 49.7886528,
  "lon": 18.1580122,
  "tags": {
    "amenity": "recycling"
  }
},
{
  "type": "node",
  "id": 2953502535,
  "lat": 49.7878814,
  "lon": 18.1629963,
  "tags": {
    "amenity": "recycling"
  }
},
{
  "type": "node",
  "id": 2953502536,
  "lat": 49.7844434,
  "lon": 18.1649884,
  "tags": {
    "amenity": "recycling"
  }
},
{
  "type": "node",
  "id": 2953502542,
  "lat": 49.7898990,
  "lon": 18.1609261,
  "tags": {
    "amenity": "recycling"
  }
},
{
  "type": "node",
  "id": 2953502543,
  "lat": 49.7912540,
  "lon": 18.1648542,
  "tags": {
    "amenity": "recycling"
  }
},
{
  "type": "node",
  "id": 574260955,
  "lat": 49.7775729,
  "lon": 18.1687842,
  "tags": {
    "amenity": "recycling"
  }
},
{
  "type": "node",
  "id": 574260429,
  "lat": 49.7789391,
  "lon": 18.1706574,
  "tags": {
    "amenity": "recycling"
  }
},
{
  "type": "node",
  "id": 574261633,
  "lat": 49.7791092,
  "lon": 18.1839011,
  "tags": {
    "amenity": "recycling"
  }
},
{
  "type": "node",
  "id": 574261249,
  "lat": 49.7874600,
  "lon": 18.1674943,
  "tags": {
    "amenity": "recycling"
  }
},
{
  "type": "node",
  "id": 2953502534,
  "lat": 49.7910365,
  "lon": 18.1684962,
  "tags": {
    "amenity": "recycling"
  }
},
{
  "type": "node",
  "id": 574261731,
  "lat": 49.8068713,
  "lon": 18.1987810,
  "tags": {
    "amenity": "recycling"
  }
},
{
  "type": "node",
  "id": 5499015492,
  "lat": 49.8208962,
  "lon": 18.2093266,
  "tags": {
    "amenity": "recycling",
    "recycling:glass": "yes",
    "recycling:paper": "yes",
    "recycling:plastic": "yes",
    "recycling:scrap_metal": "yes"
  }
},
{
  "type": "node",
  "id": 3506788861,
  "lat": 49.8347318,
  "lon": 18.1836512,
  "tags": {
    "amenity": "recycling",
    "recycling:glass": "yes"
  }
},
{
  "type": "node",
  "id": 3506788862,
  "lat": 49.8347459,
  "lon": 18.1836049,
  "tags": {
    "amenity": "recycling",
    "recycling:paper": "yes"
  }
},
{
  "type": "node",
  "id": 3506788864,
  "lat": 49.8347700,
  "lon": 18.1835567,
  "tags": {
    "amenity": "recycling",
    "recycling:plastic": "yes"
  }
},
{
  "type": "node",
  "id": 921102393,
  "lat": 49.8855778,
  "lon": 18.1955685,
  "tags": {
    "amenity": "recycling",
    "name": "Kompostárna"
  }
},
{
  "type": "node",
  "id": 3467804462,
  "lat": 49.8947854,
  "lon": 18.1960258,
  "tags": {
    "amenity": "recycling"
  }
},
{
  "type": "node",
  "id": 3469567121,
  "lat": 49.8922101,
  "lon": 18.1939519,
  "tags": {
    "amenity": "recycling"
  }
},
{
  "type": "node",
  "id": 3469567136,
  "lat": 49.8916657,
  "lon": 18.1952816,
  "tags": {
    "amenity": "recycling"
  }
},
{
  "type": "node",
  "id": 3566420675,
  "lat": 49.8938681,
  "lon": 18.1945234,
  "tags": {
    "amenity": "recycling"
  }
},
{
  "type": "node",
  "id": 3467866320,
  "lat": 49.8958701,
  "lon": 18.1957914,
  "tags": {
    "amenity": "recycling"
  }
},
{
  "type": "node",
  "id": 921106124,
  "lat": 49.8963739,
  "lon": 18.2024109,
  "tags": {
    "amenity": "recycling",
    "recycling:batteries": "yes",
    "recycling:cans": "yes",
    "recycling:glass": "yes",
    "recycling:paper": "yes",
    "recycling:scrap_metal": "yes"
  }
},
{
  "type": "node",
  "id": 5498039172,
  "lat": 49.7234239,
  "lon": 18.3212701,
  "tags": {
    "amenity": "recycling",
    "recycling:glass": "yes",
    "recycling:paper": "yes",
    "recycling:plastic": "yes"
  }
},
{
  "type": "node",
  "id": 800249879,
  "lat": 49.7689476,
  "lon": 18.3038967,
  "tags": {
    "amenity": "recycling",
    "recycling:glass": "yes",
    "recycling:paper": "yes",
    "recycling:plastic_bottles": "yes"
  }
},
{
  "type": "node",
  "id": 1399031842,
  "lat": 49.7535486,
  "lon": 18.3387238,
  "tags": {
    "amenity": "recycling",
    "recycling:glass": "yes",
    "recycling:paper": "yes",
    "recycling:plastic_bottles": "yes",
    "source": "survey"
  }
},
{
  "type": "node",
  "id": 2530809520,
  "lat": 49.7691762,
  "lon": 18.3448848,
  "tags": {
    "amenity": "recycling"
  }
},
{
  "type": "node",
  "id": 2495917208,
  "lat": 49.7731230,
  "lon": 18.3650975,
  "tags": {
    "amenity": "recycling"
  }
},
{
  "type": "node",
  "id": 2429565648,
  "lat": 49.8362018,
  "lon": 18.2897222,
  "tags": {
    "amenity": "recycling"
  }
},
{
  "type": "node",
  "id": 3407018932,
  "lat": 49.8351439,
  "lon": 18.2878620,
  "tags": {
    "amenity": "recycling"
  }
},
{
  "type": "node",
  "id": 2429565647,
  "lat": 49.8343003,
  "lon": 18.2934056,
  "tags": {
    "amenity": "recycling"
  }
},
{
  "type": "node",
  "id": 2406030453,
  "lat": 49.8295328,
  "lon": 18.3801269,
  "tags": {
    "amenity": "recycling",
    "name": "Sběrný dvůr Petřvald",
    "operator": "DEPOS Horní Suchá",
    "recycling:clothes": "yes",
    "recycling:electrical_appliances": "yes",
    "recycling:glass": "yes",
    "recycling:green_waste": "yes",
    "recycling:paper": "yes",
    "recycling:plastic_bottles": "yes"
  }
},
{
  "type": "node",
  "id": 2402813394,
  "lat": 49.5211567,
  "lon": 18.8319089,
  "tags": {
    "amenity": "recycling",
    "recycling:glass": "yes",
    "recycling:paper": "yes"
  }
},
{
  "type": "node",
  "id": 614400491,
  "lat": 49.6630908,
  "lon": 18.6728643,
  "tags": {
    "amenity": "recycling",
    "recycling:glass": "yes",
    "recycling:paper": "yes"
  }
},
{
  "type": "node",
  "id": 614400504,
  "lat": 49.6631656,
  "lon": 18.6749591,
  "tags": {
    "amenity": "recycling"
  }
},
{
  "type": "node",
  "id": 1177301202,
  "lat": 49.6644057,
  "lon": 18.6731817,
  "tags": {
    "amenity": "recycling"
  }
},
{
  "type": "node",
  "id": 1177301205,
  "lat": 49.6639744,
  "lon": 18.6733891,
  "tags": {
    "amenity": "recycling"
  }
},
{
  "type": "node",
  "id": 2609883098,
  "lat": 49.9374335,
  "lon": 13.4287799,
  "tags": {
    "amenity": "recycling",
    "source": "survey"
  }
},
{
  "type": "node",
  "id": 2862094911,
  "lat": 49.9708410,
  "lon": 13.6436088,
  "tags": {
    "amenity": "recycling",
    "recycling:glass": "yes",
    "recycling:paper": "yes"
  }
},
{
  "type": "node",
  "id": 2954724445,
  "lat": 50.0478357,
  "lon": 13.6673620,
  "tags": {
    "amenity": "recycling",
    "recycling:glass": "yes",
    "recycling:paper": "yes"
  }
},
{
  "type": "node",
  "id": 4959722790,
  "lat": 50.3273975,
  "lon": 13.5486932,
  "tags": {
    "amenity": "recycling"
  }
},
{
  "type": "node",
  "id": 3782403160,
  "lat": 50.1437801,
  "lon": 13.7697333,
  "tags": {
    "amenity": "recycling"
  }
},
{
  "type": "node",
  "id": 1939250721,
  "lat": 49.9455103,
  "lon": 13.8637697,
  "tags": {
    "amenity": "recycling"
  }
},
{
  "type": "node",
  "id": 1939250722,
  "lat": 49.9454685,
  "lon": 13.8745047,
  "tags": {
    "amenity": "recycling"
  }
},
{
  "type": "node",
  "id": 2117771893,
  "lat": 49.9786808,
  "lon": 14.0348415,
  "tags": {
    "amenity": "recycling"
  }
},
{
  "type": "node",
  "id": 2117771895,
  "lat": 49.9833936,
  "lon": 14.0364825,
  "tags": {
    "amenity": "recycling"
  }
},
{
  "type": "node",
  "id": 3869637995,
  "lat": 50.1015206,
  "lon": 13.8740277,
  "tags": {
    "amenity": "recycling"
  }
},
{
  "type": "node",
  "id": 519943684,
  "lat": 49.9652427,
  "lon": 14.0591501,
  "tags": {
    "amenity": "recycling"
  }
},
{
  "type": "node",
  "id": 519945813,
  "lat": 49.9634760,
  "lon": 14.0599913,
  "tags": {
    "amenity": "recycling"
  }
},
{
  "type": "node",
  "id": 3928039664,
  "lat": 49.9572626,
  "lon": 14.0736727,
  "tags": {
    "amenity": "recycling"
  }
},
{
  "type": "node",
  "id": 519946183,
  "lat": 49.9640999,
  "lon": 14.0642742,
  "tags": {
    "amenity": "recycling"
  }
},
{
  "type": "node",
  "id": 2117771890,
  "lat": 49.9698492,
  "lon": 14.0690089,
  "tags": {
    "amenity": "recycling"
  }
},
{
  "type": "node",
  "id": 2117771891,
  "lat": 49.9703701,
  "lon": 14.0684909,
  "tags": {
    "amenity": "recycling"
  }
},
{
  "type": "node",
  "id": 4459214381,
  "lat": 50.1364962,
  "lon": 14.1007592,
  "tags": {
    "amenity": "recycling"
  }
},
{
  "type": "node",
  "id": 1198149665,
  "lat": 50.0762200,
  "lon": 14.2604861,
  "tags": {
    "amenity": "recycling",
    "source": "bing"
  }
},
{
  "type": "node",
  "id": 3672143780,
  "lat": 50.2848037,
  "lon": 13.9143146,
  "tags": {
    "amenity": "recycling"
  }
},
{
  "type": "node",
  "id": 1553031189,
  "lat": 50.2337958,
  "lon": 14.1864237,
  "tags": {
    "amenity": "recycling"
  }
},
{
  "type": "node",
  "id": 4961561883,
  "lat": 50.3601271,
  "lon": 13.6919325,
  "tags": {
    "amenity": "recycling"
  }
},
{
  "type": "node",
  "id": 1710178192,
  "lat": 50.6021064,
  "lon": 13.7543257,
  "tags": {
    "amenity": "recycling"
  }
},
{
  "type": "node",
  "id": 1710178161,
  "lat": 50.6045510,
  "lon": 13.7571367,
  "tags": {
    "amenity": "recycling"
  }
},
{
  "type": "node",
  "id": 3932724848,
  "lat": 50.4083077,
  "lon": 14.0557199,
  "tags": {
    "amenity": "recycling",
    "name": "Výkup šrotu"
  }
},
{
  "type": "node",
  "id": 6171155099,
  "lat": 50.4269377,
  "lon": 14.2576165,
  "tags": {
    "amenity": "recycling",
    "location": "underground"
  }
},
{
  "type": "node",
  "id": 2112107475,
  "lat": 50.5210313,
  "lon": 14.2199696,
  "tags": {
    "amenity": "recycling"
  }
},
{
  "type": "node",
  "id": 7836985589,
  "lat": 50.5671371,
  "lon": 14.0578548,
  "tags": {
    "amenity": "recycling"
  }
},
{
  "type": "node",
  "id": 7836987392,
  "lat": 50.6370290,
  "lon": 14.0534058,
  "tags": {
    "amenity": "recycling"
  }
},
{
  "type": "node",
  "id": 2305564874,
  "lat": 50.6804469,
  "lon": 14.1169167,
  "tags": {
    "amenity": "recycling"
  }
},
{
  "type": "node",
  "id": 4792964026,
  "lat": 49.9502170,
  "lon": 14.3338315,
  "tags": {
    "amenity": "recycling"
  }
},
{
  "type": "node",
  "id": 2687576646,
  "lat": 49.9600912,
  "lon": 14.3197186,
  "tags": {
    "amenity": "recycling",
    "recycling:batteries": "yes",
    "recycling:clothes": "yes",
    "small_appliances": "yes"
  }
},
{
  "type": "node",
  "id": 1285287406,
  "lat": 49.9595606,
  "lon": 14.3270102,
  "tags": {
    "amenity": "recycling"
  }
},
{
  "type": "node",
  "id": 502541109,
  "lat": 49.9571141,
  "lon": 14.3585462,
  "tags": {
    "amenity": "recycling"
  }
},
{
  "type": "node",
  "id": 498432145,
  "lat": 49.9607128,
  "lon": 14.3632054,
  "tags": {
    "amenity": "recycling"
  }
},
{
  "type": "node",
  "id": 498432147,
  "lat": 49.9595256,
  "lon": 14.3589396,
  "tags": {
    "amenity": "recycling"
  }
},
{
  "type": "node",
  "id": 498432148,
  "lat": 49.9584986,
  "lon": 14.3616948,
  "tags": {
    "amenity": "recycling"
  }
},
{
  "type": "node",
  "id": 861666945,
  "lat": 49.9917719,
  "lon": 14.3470983,
  "tags": {
    "amenity": "recycling",
    "recycling:glass": "yes",
    "recycling:paper": "yes"
  }
},
{
  "type": "node",
  "id": 2703109760,
  "lat": 50.0324739,
  "lon": 14.3489773,
  "tags": {
    "amenity": "recycling",
    "recycling:beverage_cartons": "yes",
    "recycling:glass": "yes",
    "recycling:paper": "yes",
    "recycling:plastic": "yes"
  }
},
{
  "type": "node",
  "id": 4107972817,
  "lat": 49.9389534,
  "lon": 14.3848754,
  "tags": {
    "amenity": "recycling"
  }
},
{
  "type": "node",
  "id": 4097878323,
  "lat": 49.9332424,
  "lon": 14.4147288,
  "tags": {
    "amenity": "recycling"
  }
},
{
  "type": "node",
  "id": 4097878325,
  "lat": 49.9345461,
  "lon": 14.4160429,
  "tags": {
    "amenity": "recycling"
  }
},
{
  "type": "node",
  "id": 1564356416,
  "lat": 49.9669413,
  "lon": 14.3847094,
  "tags": {
    "amenity": "recycling",
    "recycling:glass": "yes",
    "recycling:paper": "yes",
    "recycling:plastic": "yes"
  }
},
{
  "type": "node",
  "id": 860222265,
  "lat": 49.9723440,
  "lon": 14.3816736,
  "tags": {
    "amenity": "recycling",
    "recycling:glass": "yes",
    "recycling:paper": "yes"
  }
},
{
  "type": "node",
  "id": 3091510786,
  "lat": 49.9662583,
  "lon": 14.3949211,
  "tags": {
    "amenity": "recycling"
  }
},
{
  "type": "node",
  "id": 1504203307,
  "lat": 50.0098257,
  "lon": 14.3860125,
  "tags": {
    "amenity": "recycling"
  }
},
{
  "type": "node",
  "id": 3762310996,
  "lat": 50.0315537,
  "lon": 14.3696307,
  "tags": {
    "amenity": "recycling"
  }
},
{
  "type": "node",
  "id": 2225106210,
  "lat": 50.0042042,
  "lon": 14.4186335,
  "tags": {
    "amenity": "recycling",
    "name": "kompost",
    "recycling:green_waste": "yes"
  }
},
{
  "type": "node",
  "id": 2802134368,
  "lat": 49.9911068,
  "lon": 14.4678168,
  "tags": {
    "amenity": "recycling"
  }
},
{
  "type": "node",
  "id": 2802057221,
  "lat": 50.0172342,
  "lon": 14.4622656,
  "tags": {
    "amenity": "recycling"
  }
},
{
  "type": "node",
  "id": 2814849995,
  "lat": 50.0210149,
  "lon": 14.4583019,
  "tags": {
    "amenity": "recycling"
  }
},
{
  "type": "node",
  "id": 2814851307,
  "lat": 50.0218062,
  "lon": 14.4608970,
  "tags": {
    "amenity": "recycling"
  }
},
{
  "type": "node",
  "id": 346244168,
  "lat": 50.0451119,
  "lon": 14.2802142,
  "tags": {
    "amenity": "recycling",
    "recycling:beverage_cartons": "yes",
    "recycling:glass": "yes",
    "recycling:paper": "yes",
    "recycling:plastic": "yes",
    "ref": "S0004973"
  }
},
{
  "type": "node",
  "id": 3318110309,
  "lat": 50.0571801,
  "lon": 14.2848809,
  "tags": {
    "amenity": "recycling",
    "recycling:glass": "yes",
    "recycling:paper": "yes",
    "recycling:plastic": "yes"
  }
},
{
  "type": "node",
  "id": 1045213051,
  "lat": 50.0334997,
  "lon": 14.3128731,
  "tags": {
    "amenity": "recycling",
    "source": "bing:ortofoto"
  }
},
{
  "type": "node",
  "id": 7566005942,
  "lat": 50.0457820,
  "lon": 14.3043540,
  "tags": {
    "amenity": "recycling",
    "recycling:glass": "yes",
    "recycling:paper": "yes",
    "recycling:plastic": "yes",
    "ref": "S0005160"
  }
},
{
  "type": "node",
  "id": 7566005943,
  "lat": 50.0457958,
  "lon": 14.3045283,
  "tags": {
    "amenity": "recycling",
    "recycling:clothes": "yes",
    "ref": "S0005160"
  }
},
{
  "type": "node",
  "id": 7566197943,
  "lat": 50.0460676,
  "lon": 14.3028838,
  "tags": {
    "amenity": "recycling",
    "recycling:glass": "yes",
    "recycling:paper": "yes",
    "recycling:plastic": "yes",
    "ref": "S0005160"
  }
},
{
  "type": "node",
  "id": 1042039647,
  "lat": 50.0550781,
  "lon": 14.2870019,
  "tags": {
    "amenity": "recycling",
    "source": "bing:ortofoto"
  }
},
{
  "type": "node",
  "id": 2775500376,
  "lat": 50.0473148,
  "lon": 14.3035067,
  "tags": {
    "amenity": "recycling",
    "recycling:beverage_cartons": "yes",
    "recycling:glass": "yes",
    "recycling:paper": "yes",
    "recycling:plastic": "yes",
    "ref": "S0005160"
  }
},
{
  "type": "node",
  "id": 1250225283,
  "lat": 50.0565981,
  "lon": 14.3076824,
  "tags": {
    "amenity": "recycling"
  }
},
{
  "type": "node",
  "id": 906604270,
  "lat": 50.0599957,
  "lon": 14.2912751,
  "tags": {
    "amenity": "recycling"
  }
},
{
  "type": "node",
  "id": 906604283,
  "lat": 50.0599365,
  "lon": 14.2923233,
  "tags": {
    "amenity": "recycling"
  }
},
{
  "type": "node",
  "id": 928462144,
  "lat": 50.0610572,
  "lon": 14.2929105,
  "tags": {
    "amenity": "recycling"
  }
},
{
  "type": "node",
  "id": 906604267,
  "lat": 50.0624102,
  "lon": 14.2997643,
  "tags": {
    "amenity": "recycling"
  }
},
{
  "type": "node",
  "id": 906604277,
  "lat": 50.0611363,
  "lon": 14.2966320,
  "tags": {
    "amenity": "recycling"
  }
},
{
  "type": "node",
  "id": 1458505572,
  "lat": 50.0658479,
  "lon": 14.2971371,
  "tags": {
    "amenity": "recycling"
  }
},
{
  "type": "node",
  "id": 1458505686,
  "lat": 50.0679673,
  "lon": 14.2997750,
  "tags": {
    "amenity": "recycling"
  }
},
{
  "type": "node",
  "id": 2111054596,
  "lat": 50.0669732,
  "lon": 14.2994847,
  "tags": {
    "amenity": "recycling"
  }
},
{
  "type": "node",
  "id": 2111054604,
  "lat": 50.0676040,
  "lon": 14.2989187,
  "tags": {
    "amenity": "recycling"
  }
},
{
  "type": "node",
  "id": 2111054607,
  "lat": 50.0681809,
  "lon": 14.2984161,
  "tags": {
    "amenity": "recycling"
  }
},
{
  "type": "node",
  "id": 1744064236,
  "lat": 50.0658714,
  "lon": 14.3033631,
  "tags": {
    "amenity": "recycling"
  }
},
{
  "type": "node",
  "id": 1746656769,
  "lat": 50.0656302,
  "lon": 14.3026534,
  "tags": {
    "amenity": "recycling"
  }
},
{
  "type": "node",
  "id": 2111054583,
  "lat": 50.0663665,
  "lon": 14.3000134,
  "tags": {
    "amenity": "recycling"
  }
},
{
  "type": "node",
  "id": 1693172110,
  "lat": 50.0716585,
  "lon": 14.3124203,
  "tags": {
    "amenity": "recycling",
    "recycling:glass": "yes",
    "recycling:paper": "yes",
    "recycling:plastic": "yes"
  }
},
{
  "type": "node",
  "id": 1788445640,
  "lat": 50.0730153,
  "lon": 14.3105486,
  "tags": {
    "amenity": "recycling",
    "recycling:glass": "yes",
    "recycling:paper": "yes",
    "recycling:plastic": "yes"
  }
},
{
  "type": "node",
  "id": 1045211487,
  "lat": 50.0351630,
  "lon": 14.3165909,
  "tags": {
    "amenity": "recycling"
  }
},
{
  "type": "node",
  "id": 1045092204,
  "lat": 50.0357077,
  "lon": 14.3230764,
  "tags": {
    "amenity": "recycling"
  }
},
{
  "type": "node",
  "id": 1042622521,
  "lat": 50.0528092,
  "lon": 14.3149519,
  "tags": {
    "amenity": "recycling",
    "source": "bing:ortofoto"
  }
},
{
  "type": "node",
  "id": 1751652618,
  "lat": 50.0513605,
  "lon": 14.3170360,
  "tags": {
    "amenity": "recycling"
  }
},
{
  "type": "node",
  "id": 1751652626,
  "lat": 50.0517518,
  "lon": 14.3165136,
  "tags": {
    "amenity": "recycling"
  }
},
{
  "type": "node",
  "id": 1601772448,
  "lat": 50.0490815,
  "lon": 14.3316716,
  "tags": {
    "amenity": "recycling",
    "source": "gps"
  }
},
{
  "type": "node",
  "id": 1932772761,
  "lat": 50.0515088,
  "lon": 14.3342242,
  "tags": {
    "amenity": "recycling"
  }
},
{
  "type": "node",
  "id": 2147010219,
  "lat": 50.0516933,
  "lon": 14.3372668,
  "tags": {
    "amenity": "recycling"
  }
},
{
  "type": "node",
  "id": 1458523023,
  "lat": 50.0565897,
  "lon": 14.3315741,
  "tags": {
    "amenity": "recycling"
  }
},
{
  "type": "node",
  "id": 1752497565,
  "lat": 50.0589369,
  "lon": 14.3280229,
  "tags": {
    "amenity": "recycling"
  }
},
{
  "type": "node",
  "id": 1381655336,
  "lat": 50.0491218,
  "lon": 14.3452410,
  "tags": {
    "amenity": "recycling"
  }
},
{
  "type": "node",
  "id": 1381658372,
  "lat": 50.0501939,
  "lon": 14.3474658,
  "tags": {
    "amenity": "recycling"
  }
},
{
  "type": "node",
  "id": 1776331246,
  "lat": 50.0472093,
  "lon": 14.3469440,
  "tags": {
    "amenity": "recycling"
  }
},
{
  "type": "node",
  "id": 1779813775,
  "lat": 50.0514259,
  "lon": 14.3460912,
  "tags": {
    "amenity": "recycling"
  }
},
{
  "type": "node",
  "id": 1779813776,
  "lat": 50.0515455,
  "lon": 14.3479591,
  "tags": {
    "amenity": "recycling"
  }
},
{
  "type": "node",
  "id": 571228922,
  "lat": 50.0524115,
  "lon": 14.3638800,
  "tags": {
    "amenity": "recycling",
    "recycling:glass": "yes",
    "recycling:paper": "yes",
    "recycling:plastic": "yes"
  }
},
{
  "type": "node",
  "id": 1040160352,
  "lat": 50.0646408,
  "lon": 14.3163823,
  "tags": {
    "amenity": "recycling",
    "source": "bing:ortofoto"
  }
},
{
  "type": "node",
  "id": 1731960629,
  "lat": 50.0646281,
  "lon": 14.3142763,
  "tags": {
    "amenity": "recycling"
  }
},
{
  "type": "node",
  "id": 2111054597,
  "lat": 50.0670427,
  "lon": 14.3172493,
  "tags": {
    "amenity": "recycling"
  }
},
{
  "type": "node",
  "id": 2111054598,
  "lat": 50.0670564,
  "lon": 14.3163311,
  "tags": {
    "amenity": "recycling"
  }
},
{
  "type": "node",
  "id": 1449141088,
  "lat": 50.0735422,
  "lon": 14.3144669,
  "tags": {
    "amenity": "recycling"
  }
},
{
  "type": "node",
  "id": 1420248844,
  "lat": 50.0748465,
  "lon": 14.3219682,
  "tags": {
    "amenity": "recycling"
  }
},
{
  "type": "node",
  "id": 7305762317,
  "lat": 50.0812643,
  "lon": 14.3174546,
  "tags": {
    "amenity": "recycling",
    "recycling:cans": "yes",
    "recycling:cartons": "yes",
    "recycling:glass": "yes",
    "recycling:paper": "yes",
    "recycling:plastic": "yes"
  }
},
{
  "type": "node",
  "id": 1500411543,
  "lat": 50.0774800,
  "lon": 14.3272586,
  "tags": {
    "amenity": "recycling"
  }
},
{
  "type": "node",
  "id": 1245372455,
  "lat": 50.0707934,
  "lon": 14.3488000,
  "tags": {
    "amenity": "recycling",
    "source": "bing:ortofoto"
  }
},
{
  "type": "node",
  "id": 1245372881,
  "lat": 50.0725888,
  "lon": 14.3500052,
  "tags": {
    "amenity": "recycling",
    "source": "bing:ortofoto"
  }
},
{
  "type": "node",
  "id": 1245373038,
  "lat": 50.0716457,
  "lon": 14.3472292,
  "tags": {
    "amenity": "recycling",
    "source": "bing:ortofoto"
  }
},
{
  "type": "node",
  "id": 1417374476,
  "lat": 50.0637846,
  "lon": 14.3585076,
  "tags": {
    "amenity": "recycling"
  }
},
{
  "type": "node",
  "id": 1414540584,
  "lat": 50.0631884,
  "lon": 14.3613827,
  "tags": {
    "amenity": "recycling"
  }
},
{
  "type": "node",
  "id": 1417374537,
  "lat": 50.0660982,
  "lon": 14.3594349,
  "tags": {
    "amenity": "recycling"
  }
},
{
  "type": "node",
  "id": 1042039515,
  "lat": 50.0686625,
  "lon": 14.3525137,
  "tags": {
    "amenity": "recycling",
    "source": "bing:ortofoto"
  }
},
{
  "type": "node",
  "id": 1245372251,
  "lat": 50.0696322,
  "lon": 14.3565120,
  "tags": {
    "amenity": "recycling"
  }
},
{
  "type": "node",
  "id": 1410234231,
  "lat": 50.0736974,
  "lon": 14.3559032,
  "tags": {
    "amenity": "recycling"
  }
},
{
  "type": "node",
  "id": 360638973,
  "lat": 50.0827214,
  "lon": 14.3621812,
  "tags": {
    "amenity": "recycling",
    "recycling:beverage_cartons": "yes",
    "recycling:glass": "yes",
    "recycling:paper": "yes",
    "recycling:plastic": "yes",
    "source": "norc.cz"
  }
},
{
  "type": "node",
  "id": 6914551856,
  "lat": 50.1051633,
  "lon": 14.2655147,
  "tags": {
    "amenity": "recycling",
    "level": "1",
    "recycling:paper": "yes",
    "recycling:plastic": "yes",
    "recycling:scrap_metal": "yes"
  }
},
{
  "type": "node",
  "id": 1664382351,
  "lat": 50.0898475,
  "lon": 14.3020042,
  "tags": {
    "amenity": "recycling"
  }
},
{
  "type": "node",
  "id": 2321936715,
  "lat": 50.1023903,
  "lon": 14.2891095,
  "tags": {
    "amenity": "recycling"
  }
},
{
  "type": "node",
  "id": 360921707,
  "lat": 50.0924075,
  "lon": 14.3144429,
  "tags": {
    "amenity": "recycling",
    "recycling:beverage_cartons": "yes",
    "recycling:glass": "yes",
    "recycling:paper": "yes",
    "recycling:plastic": "yes",
    "source": "norc.cz"
  }
},
{
  "type": "node",
  "id": 360921712,
  "lat": 50.0912659,
  "lon": 14.3157591,
  "tags": {
    "amenity": "recycling",
    "recycling:beverage_cartons": "yes",
    "recycling:glass": "yes",
    "recycling:paper": "yes",
    "recycling:plastic": "yes",
    "source": "norc.cz"
  }
},
{
  "type": "node",
  "id": 360906077,
  "lat": 50.0870098,
  "lon": 14.3296307,
  "tags": {
    "amenity": "recycling",
    "email": "glorion@re-max.cz; info@glorion.eu",
    "recycling:beverage_cartons": "yes",
    "recycling:glass": "yes",
    "recycling:paper": "yes",
    "recycling:plastic": "yes",
    "source": "norc.cz"
  }
},
{
  "type": "node",
  "id": 360905963,
  "lat": 50.0873211,
  "lon": 14.3362295,
  "tags": {
    "amenity": "recycling",
    "recycling:beverage_cartons": "yes",
    "recycling:glass": "yes",
    "recycling:paper": "yes",
    "recycling:plastic": "yes",
    "source": "norc.cz"
  }
},
{
  "type": "node",
  "id": 360906068,
  "lat": 50.0875960,
  "lon": 14.3335170,
  "tags": {
    "amenity": "recycling",
    "recycling:beverage_cartons": "yes",
    "recycling:glass": "yes",
    "recycling:paper": "yes",
    "recycling:plastic": "yes",
    "source": "norc.cz"
  }
},
{
  "type": "node",
  "id": 2710701473,
  "lat": 50.0900700,
  "lon": 14.3437460,
  "tags": {
    "amenity": "recycling",
    "recycling:cartons": "yes",
    "recycling:glass": "yes",
    "recycling:paper": "yes",
    "recycling:plastic": "yes"
  }
},
{
  "type": "node",
  "id": 471844041,
  "lat": 50.0935459,
  "lon": 14.3396539,
  "tags": {
    "amenity": "recycling",
    "recycling:beverage_cartons": "yes",
    "recycling:glass": "yes",
    "recycling:paper": "yes",
    "recycling:plastic": "yes"
  }
},
{
  "type": "node",
  "id": 1464977939,
  "lat": 50.0941145,
  "lon": 14.3493213,
  "tags": {
    "amenity": "recycling"
  }
},
{
  "type": "node",
  "id": 364441936,
  "lat": 50.0881595,
  "lon": 14.3643393,
  "tags": {
    "amenity": "recycling",
    "recycling:beverage_cartons": "yes",
    "recycling:glass": "yes",
    "recycling:paper": "yes",
    "recycling:plastic": "yes"
  }
},
{
  "type": "node",
  "id": 537988186,
  "lat": 50.0978898,
  "lon": 14.3529814,
  "tags": {
    "amenity": "recycling",
    "recycling:beverage_cartons": "yes",
    "recycling:glass": "yes",
    "recycling:paper": "yes",
    "recycling:plastic": "yes"
  }
},
{
  "type": "node",
  "id": 3976109751,
  "lat": 50.0928795,
  "lon": 14.3526913,
  "tags": {
    "amenity": "recycling"
  }
},
{
  "type": "node",
  "id": 4114774223,
  "lat": 50.0943615,
  "lon": 14.3549669,
  "tags": {
    "amenity": "recycling"
  }
},
{
  "type": "node",
  "id": 332457279,
  "lat": 50.1003673,
  "lon": 14.3643494,
  "tags": {
    "amenity": "recycling",
    "recycling:beverage_cartons": "yes",
    "recycling:glass": "yes",
    "recycling:paper": "yes",
    "recycling:plastic": "yes"
  }
},
{
  "type": "node",
  "id": 332457283,
  "lat": 50.1027654,
  "lon": 14.3645122,
  "tags": {
    "amenity": "recycling",
    "recycling:beverage_cartons": "yes",
    "recycling:glass": "yes",
    "recycling:paper": "yes",
    "recycling:plastic": "yes"
  }
},
{
  "type": "node",
  "id": 571228927,
  "lat": 50.0520619,
  "lon": 14.3672384,
  "tags": {
    "amenity": "recycling",
    "recycling:paper": "yes",
    "recycling:plastic": "yes"
  }
},
{
  "type": "node",
  "id": 1246099749,
  "lat": 50.0557792,
  "lon": 14.3686634,
  "tags": {
    "amenity": "recycling"
  }
},
{
  "type": "node",
  "id": 1215020441,
  "lat": 50.0596344,
  "lon": 14.3818075,
  "tags": {
    "amenity": "recycling",
    "recycling:glass": "yes",
    "recycling:paper": "yes"
  }
},
{
  "type": "node",
  "id": 1215020465,
  "lat": 50.0589728,
  "lon": 14.3811247,
  "tags": {
    "amenity": "recycling",
    "recycling:glass": "yes",
    "recycling:paper": "yes"
  }
},
{
  "type": "node",
  "id": 1248039646,
  "lat": 50.0435208,
  "lon": 14.3974831,
  "tags": {
    "amenity": "recycling"
  }
},
{
  "type": "node",
  "id": 2815240248,
  "lat": 50.0357052,
  "lon": 14.4097359,
  "tags": {
    "amenity": "recycling"
  }
},
{
  "type": "node",
  "id": 2815239769,
  "lat": 50.0339006,
  "lon": 14.4120749,
  "tags": {
    "amenity": "recycling"
  }
},
{
  "type": "node",
  "id": 1457625049,
  "lat": 50.0636561,
  "lon": 14.3687545,
  "tags": {
    "amenity": "recycling"
  }
},
{
  "type": "node",
  "id": 1457625057,
  "lat": 50.0646400,
  "lon": 14.3693033,
  "tags": {
    "amenity": "recycling"
  }
},
{
  "type": "node",
  "id": 4125834089,
  "lat": 50.0641262,
  "lon": 14.3742442,
  "tags": {
    "amenity": "recycling"
  }
},
{
  "type": "node",
  "id": 1417386045,
  "lat": 50.0691351,
  "lon": 14.3674660,
  "tags": {
    "amenity": "recycling"
  }
},
{
  "type": "node",
  "id": 1417386055,
  "lat": 50.0693720,
  "lon": 14.3668650,
  "tags": {
    "amenity": "recycling"
  }
},
{
  "type": "node",
  "id": 5745769070,
  "lat": 50.0701580,
  "lon": 14.3685314,
  "tags": {
    "amenity": "recycling"
  }
},
{
  "type": "node",
  "id": 1457625063,
  "lat": 50.0672381,
  "lon": 14.3729307,
  "tags": {
    "amenity": "recycling"
  }
},
{
  "type": "node",
  "id": 5600449010,
  "lat": 50.0722917,
  "lon": 14.3737183,
  "tags": {
    "amenity": "recycling"
  }
},
{
  "type": "node",
  "id": 5600449449,
  "lat": 50.0718544,
  "lon": 14.3723264,
  "tags": {
    "amenity": "recycling"
  }
},
{
  "type": "node",
  "id": 3673854564,
  "lat": 50.0603081,
  "lon": 14.3840532,
  "tags": {
    "amenity": "recycling"
  }
},
{
  "type": "node",
  "id": 932603982,
  "lat": 50.0634613,
  "lon": 14.3893909,
  "tags": {
    "amenity": "recycling",
    "recycling:beverage_cartons": "yes",
    "recycling:glass": "yes",
    "recycling:paper": "yes",
    "recycling:plastic": "yes"
  }
},
{
  "type": "node",
  "id": 932604017,
  "lat": 50.0638715,
  "lon": 14.3916424,
  "tags": {
    "amenity": "recycling",
    "recycling:glass": "yes",
    "recycling:paper": "yes",
    "recycling:plastic": "yes"
  }
},
{
  "type": "node",
  "id": 937612686,
  "lat": 50.0618170,
  "lon": 14.3900006,
  "tags": {
    "amenity": "recycling",
    "recycling:glass": "yes",
    "recycling:paper": "yes",
    "recycling:plastic": "yes"
  }
},
{
  "type": "node",
  "id": 2507325648,
  "lat": 50.0608215,
  "lon": 14.3908787,
  "tags": {
    "amenity": "recycling"
  }
},
{
  "type": "node",
  "id": 931499914,
  "lat": 50.0674579,
  "lon": 14.3911807,
  "tags": {
    "amenity": "recycling",
    "recycling:glass": "yes",
    "recycling:paper": "yes",
    "recycling:plastic": "yes"
  }
},
{
  "type": "node",
  "id": 2202184850,
  "lat": 50.0695049,
  "lon": 14.3876370,
  "tags": {
    "amenity": "recycling",
    "recycling:beverage_cartons": "yes",
    "recycling:glass": "yes",
    "recycling:paper": "yes",
    "recycling:plastic": "yes"
  }
},
{
  "type": "node",
  "id": 360656912,
  "lat": 50.0840570,
  "lon": 14.3700978,
  "tags": {
    "amenity": "recycling",
    "recycling:beverage_cartons": "yes",
    "recycling:glass": "yes",
    "recycling:paper": "yes",
    "recycling:plastic": "yes",
    "source": "norc.cz"
  }
},
{
  "type": "node",
  "id": 360678986,
  "lat": 50.0847412,
  "lon": 14.3731236,
  "tags": {
    "amenity": "recycling",
    "recycling:beverage_cartons": "yes",
    "recycling:glass": "yes",
    "recycling:paper": "yes",
    "recycling:plastic": "yes",
    "source": "norc.cz"
  }
},
{
  "type": "node",
  "id": 1313922726,
  "lat": 50.0830720,
  "lon": 14.3783733,
  "tags": {
    "amenity": "recycling",
    "source": "bing:ortofoto"
  }
},
{
  "type": "node",
  "id": 1245372334,
  "lat": 50.0770024,
  "lon": 14.3836523,
  "tags": {
    "amenity": "recycling",
    "source": "bing:ortofoto"
  }
},
{
  "type": "node",
  "id": 1245373128,
  "lat": 50.0745048,
  "lon": 14.3797003,
  "tags": {
    "amenity": "recycling",
    "source": "bing:ortofoto"
  }
},
{
  "type": "node",
  "id": 1400165685,
  "lat": 50.0731535,
  "lon": 14.3818265,
  "tags": {
    "amenity": "recycling"
  }
},
{
  "type": "node",
  "id": 1245372735,
  "lat": 50.0746974,
  "lon": 14.3915404,
  "tags": {
    "amenity": "recycling",
    "source": "bing:ortofoto"
  }
},
{
  "type": "node",
  "id": 932604010,
  "lat": 50.0644907,
  "lon": 14.3963285,
  "tags": {
    "amenity": "recycling",
    "recycling:glass": "yes",
    "recycling:paper": "yes",
    "recycling:plastic": "yes"
  }
},
{
  "type": "node",
  "id": 932604013,
  "lat": 50.0624110,
  "lon": 14.3935733,
  "tags": {
    "amenity": "recycling",
    "recycling:glass": "yes",
    "recycling:paper": "yes"
  }
},
{
  "type": "node",
  "id": 932604025,
  "lat": 50.0633265,
  "lon": 14.3988517,
  "tags": {
    "amenity": "recycling",
    "recycling:glass": "yes",
    "recycling:paper": "yes",
    "recycling:plastic": "yes"
  }
},
{
  "type": "node",
  "id": 414135324,
  "lat": 50.0708248,
  "lon": 14.4168034,
  "tags": {
    "amenity": "recycling",
    "recycling:glass": "yes",
    "recycling:paper": "yes",
    "recycling:plastic": "yes"
  }
},
{
  "type": "node",
  "id": 1245372635,
  "lat": 50.0803690,
  "lon": 14.3935796,
  "tags": {
    "amenity": "recycling",
    "source": "bing:ortofoto"
  }
},
{
  "type": "node",
  "id": 355003394,
  "lat": 50.0752312,
  "lon": 14.4156610,
  "tags": {
    "amenity": "recycling",
    "note": "malé popelnice"
  }
},
{
  "type": "node",
  "id": 2815253719,
  "lat": 50.0378844,
  "lon": 14.4230876,
  "tags": {
    "amenity": "recycling"
  }
},
{
  "type": "node",
  "id": 2815253720,
  "lat": 50.0372443,
  "lon": 14.4193468,
  "tags": {
    "amenity": "recycling"
  }
},
{
  "type": "node",
  "id": 1129268762,
  "lat": 50.0367628,
  "lon": 14.4307780,
  "tags": {
    "amenity": "recycling"
  }
},
{
  "type": "node",
  "id": 906105678,
  "lat": 50.0355458,
  "lon": 14.4414072,
  "tags": {
    "amenity": "recycling"
  }
},
{
  "type": "node",
  "id": 2815228483,
  "lat": 50.0369526,
  "lon": 14.4405931,
  "tags": {
    "amenity": "recycling"
  }
},
{
  "type": "node",
  "id": 1719924573,
  "lat": 50.0738142,
  "lon": 14.4179278,
  "tags": {
    "amenity": "recycling",
    "recycling:beverage_cartons": "yes",
    "recycling:glass": "yes",
    "recycling:paper": "yes",
    "recycling:plastic": "yes"
  }
},
{
  "type": "node",
  "id": 2116433671,
  "lat": 50.0763172,
  "lon": 14.4259775,
  "tags": {
    "amenity": "recycling"
  }
},
{
  "type": "node",
  "id": 1434219902,
  "lat": 50.0732162,
  "lon": 14.4360328,
  "tags": {
    "amenity": "recycling"
  }
},
{
  "type": "node",
  "id": 2394465421,
  "lat": 50.0766609,
  "lon": 14.4329637,
  "tags": {
    "amenity": "recycling"
  }
},
{
  "type": "node",
  "id": 1535404307,
  "lat": 50.0719635,
  "lon": 14.4514506,
  "tags": {
    "amenity": "recycling"
  }
},
{
  "type": "node",
  "id": 2213536875,
  "lat": 50.0723228,
  "lon": 14.4561719,
  "tags": {
    "amenity": "recycling",
    "recycling:cartons": "yes",
    "recycling:glass": "yes",
    "recycling:paper": "yes",
    "recycling:plastic_packaging": "yes"
  }
},
{
  "type": "node",
  "id": 2217367126,
  "lat": 50.0711537,
  "lon": 14.4566617,
  "tags": {
    "amenity": "recycling",
    "recycling:glass": "yes",
    "source": "survey"
  }
},
{
  "type": "node",
  "id": 2217367129,
  "lat": 50.0712355,
  "lon": 14.4551163,
  "tags": {
    "amenity": "recycling",
    "recycling:cartons": "yes",
    "recycling:glass": "yes",
    "recycling:paper": "yes",
    "recycling:plastic_packaging": "yes",
    "source": "survey"
  }
},
{
  "type": "node",
  "id": 2209021510,
  "lat": 50.0708681,
  "lon": 14.4579308,
  "tags": {
    "amenity": "recycling",
    "recycling:glass": "yes",
    "recycling:paper": "yes",
    "recycling:plastic_packaging": "yes"
  }
},
{
  "type": "node",
  "id": 2161935834,
  "lat": 50.0785481,
  "lon": 14.4514758,
  "tags": {
    "amenity": "recycling"
  }
},
{
  "type": "node",
  "id": 1562993236,
  "lat": 50.0834348,
  "lon": 14.4470860,
  "tags": {
    "amenity": "recycling"
  }
},
{
  "type": "node",
  "id": 860460751,
  "lat": 50.0798024,
  "lon": 14.4546657,
  "tags": {
    "amenity": "recycling",
    "recycling:glass": "yes",
    "recycling:paper": "yes"
  }
},
{
  "type": "node",
  "id": 413116514,
  "lat": 50.0786109,
  "lon": 14.4581187,
  "tags": {
    "amenity": "recycling",
    "recycling:glass": "yes",
    "recycling:paper": "yes",
    "recycling:plastic": "yes"
  }
},
{
  "type": "node",
  "id": 1546933011,
  "lat": 50.0750311,
  "lon": 14.4681793,
  "tags": {
    "amenity": "recycling",
    "recycling:glass": "yes",
    "recycling:paper": "yes",
    "recycling:plastic_packaging": "yes"
  }
},
{
  "type": "node",
  "id": 332453212,
  "lat": 50.0910900,
  "lon": 14.3682697,
  "tags": {
    "amenity": "recycling",
    "recycling:beverage_cartons": "yes",
    "recycling:glass": "yes",
    "recycling:paper": "yes",
    "recycling:plastic": "yes"
  }
},
{
  "type": "node",
  "id": 360217777,
  "lat": 50.0911371,
  "lon": 14.3718202,
  "tags": {
    "amenity": "recycling",
    "recycling:beverage_cartons": "yes",
    "recycling:glass": "yes",
    "recycling:paper": "yes",
    "recycling:plastic": "yes"
  }
},
{
  "type": "node",
  "id": 364438705,
  "lat": 50.0883136,
  "lon": 14.3702235,
  "tags": {
    "amenity": "recycling",
    "recycling:beverage_cartons": "yes",
    "recycling:glass": "yes",
    "recycling:paper": "yes",
    "recycling:plastic": "yes"
  }
},
{
  "type": "node",
  "id": 364441839,
  "lat": 50.0875648,
  "lon": 14.3658481,
  "tags": {
    "amenity": "recycling",
    "recycling:beverage_cartons": "yes",
    "recycling:glass": "yes",
    "recycling:paper": "yes",
    "recycling:plastic": "yes"
  }
},
{
  "type": "node",
  "id": 4026611702,
  "lat": 50.0890030,
  "lon": 14.3681958,
  "tags": {
    "amenity": "recycling"
  }
},
{
  "type": "node",
  "id": 4093640910,
  "lat": 50.0886971,
  "lon": 14.3695825,
  "tags": {
    "amenity": "recycling"
  }
},
{
  "type": "node",
  "id": 354837982,
  "lat": 50.0917874,
  "lon": 14.3771841,
  "tags": {
    "amenity": "recycling"
  }
},
{
  "type": "node",
  "id": 2974730756,
  "lat": 50.0891315,
  "lon": 14.3722847,
  "tags": {
    "amenity": "recycling"
  }
},
{
  "type": "node",
  "id": 332454271,
  "lat": 50.0931140,
  "lon": 14.3665019,
  "tags": {
    "amenity": "recycling",
    "recycling:beverage_cartons": "yes",
    "recycling:glass": "yes",
    "recycling:paper": "yes",
    "recycling:plastic": "yes"
  }
},
{
  "type": "node",
  "id": 367836206,
  "lat": 50.0933637,
  "lon": 14.3700359,
  "tags": {
    "amenity": "recycling",
    "recycling:beverage_cartons": "yes",
    "recycling:glass": "yes",
    "recycling:paper": "yes",
    "recycling:plastic": "yes"
  }
},
{
  "type": "node",
  "id": 3811707236,
  "lat": 50.0973132,
  "lon": 14.3673872,
  "tags": {
    "amenity": "recycling"
  }
},
{
  "type": "node",
  "id": 354651431,
  "lat": 50.0978116,
  "lon": 14.3720689,
  "tags": {
    "amenity": "recycling",
    "recycling:beverage_cartons": "yes",
    "recycling:glass": "yes",
    "recycling:paper": "yes",
    "recycling:plastic": "yes"
  }
},
{
  "type": "node",
  "id": 358463827,
  "lat": 50.0968098,
  "lon": 14.3737265,
  "tags": {
    "amenity": "recycling",
    "recycling:beverage_cartons": "yes",
    "recycling:glass": "yes",
    "recycling:paper": "yes",
    "recycling:plastic": "yes"
  }
},
{
  "type": "node",
  "id": 360342647,
  "lat": 50.0936177,
  "lon": 14.3760288,
  "tags": {
    "amenity": "recycling",
    "recycling:beverage_cartons": "yes",
    "recycling:glass": "yes",
    "recycling:paper": "yes",
    "recycling:plastic": "yes"
  }
},
{
  "type": "node",
  "id": 1342411925,
  "lat": 50.0939362,
  "lon": 14.3727225,
  "tags": {
    "amenity": "recycling"
  }
},
{
  "type": "node",
  "id": 330656619,
  "lat": 50.0875938,
  "lon": 14.3842094,
  "tags": {
    "amenity": "recycling",
    "recycling:beverage_cartons": "yes",
    "recycling:glass": "yes",
    "recycling:paper": "yes",
    "recycling:plastic": "yes"
  }
},
{
  "type": "node",
  "id": 330661384,
  "lat": 50.0914808,
  "lon": 14.3801392,
  "tags": {
    "amenity": "recycling",
    "recycling:glass": "yes",
    "recycling:paper": "yes"
  }
},
{
  "type": "node",
  "id": 354838225,
  "lat": 50.0926550,
  "lon": 14.3849915,
  "tags": {
    "amenity": "recycling"
  }
},
{
  "type": "node",
  "id": 360334024,
  "lat": 50.0950873,
  "lon": 14.3811516,
  "tags": {
    "amenity": "recycling",
    "recycling:beverage_cartons": "yes",
    "recycling:glass": "yes",
    "recycling:paper": "yes",
    "recycling:plastic": "yes"
  }
},
{
  "type": "node",
  "id": 360210197,
  "lat": 50.0984469,
  "lon": 14.3906092,
  "tags": {
    "amenity": "recycling",
    "recycling:beverage_cartons": "yes",
    "recycling:glass": "yes",
    "recycling:paper": "yes",
    "recycling:plastic": "yes"
  }
},
{
  "type": "node",
  "id": 360348157,
  "lat": 50.0939737,
  "lon": 14.3854528,
  "tags": {
    "amenity": "recycling",
    "recycling:beverage_cartons": "yes",
    "recycling:glass": "yes",
    "recycling:paper": "yes",
    "recycling:plastic": "yes"
  }
},
{
  "type": "node",
  "id": 2715350993,
  "lat": 50.0984658,
  "lon": 14.3881530,
  "tags": {
    "amenity": "recycling"
  }
},
{
  "type": "node",
  "id": 330103654,
  "lat": 50.1028067,
  "lon": 14.3686903,
  "tags": {
    "amenity": "recycling",
    "recycling:cardboard": "yes",
    "recycling:cartons": "yes",
    "recycling:glass": "yes",
    "recycling:paper": "yes",
    "recycling:plastic": "yes",
    "source": "survey"
  }
},
{
  "type": "node",
  "id": 332457284,
  "lat": 50.1048769,
  "lon": 14.3703183,
  "tags": {
    "amenity": "recycling",
    "recycling:cartons": "yes",
    "recycling:clothes": "yes",
    "recycling:glass": "yes",
    "recycling:paper": "yes",
    "recycling:plastic": "yes"
  }
},
{
  "type": "node",
  "id": 312898757,
  "lat": 50.1020259,
  "lon": 14.3741300,
  "tags": {
    "amenity": "recycling"
  }
},
{
  "type": "node",
  "id": 330200809,
  "lat": 50.1056535,
  "lon": 14.3733923,
  "tags": {
    "amenity": "recycling",
    "recycling:glass": "yes",
    "recycling:paper": "yes"
  }
},
{
  "type": "node",
  "id": 332224356,
  "lat": 50.1040313,
  "lon": 14.3876650,
  "tags": {
    "amenity": "recycling",
    "recycling:paper": "yes",
    "recycling:plastic": "yes"
  }
},
{
  "type": "node",
  "id": 330195419,
  "lat": 50.1087852,
  "lon": 14.3792083,
  "tags": {
    "amenity": "recycling",
    "recycling:glass": "yes",
    "recycling:paper": "yes"
  }
},
{
  "type": "node",
  "id": 311099411,
  "lat": 50.1060850,
  "lon": 14.3853775,
  "tags": {
    "amenity": "recycling"
  }
},
{
  "type": "node",
  "id": 354684508,
  "lat": 50.0889989,
  "lon": 14.4168151,
  "tags": {
    "amenity": "recycling"
  }
},
{
  "type": "node",
  "id": 360039725,
  "lat": 50.0986666,
  "lon": 14.4072216,
  "tags": {
    "amenity": "recycling",
    "recycling:beverage_cartons": "yes",
    "recycling:glass": "yes",
    "recycling:paper": "yes",
    "recycling:plastic": "yes"
  }
},
{
  "type": "node",
  "id": 331950043,
  "lat": 50.1042020,
  "lon": 14.3958374,
  "tags": {
    "amenity": "recycling",
    "recycling:beverage_cartons": "yes",
    "recycling:glass": "yes",
    "recycling:paper": "yes",
    "recycling:plastic": "yes"
  }
},
{
  "type": "node",
  "id": 331950083,
  "lat": 50.1025183,
  "lon": 14.3989929,
  "tags": {
    "amenity": "recycling",
    "recycling:beverage_cartons": "yes",
    "recycling:glass": "yes",
    "recycling:paper": "yes",
    "recycling:plastic": "yes"
  }
},
{
  "type": "node",
  "id": 331950167,
  "lat": 50.1033815,
  "lon": 14.4053689,
  "tags": {
    "amenity": "recycling",
    "recycling:beverage_cartons": "yes",
    "recycling:glass": "yes",
    "recycling:paper": "yes",
    "recycling:plastic": "yes"
  }
},
{
  "type": "node",
  "id": 1307117566,
  "lat": 50.1231886,
  "lon": 14.3890861,
  "tags": {
    "amenity": "recycling"
  }
},
{
  "type": "node",
  "id": 1003134378,
  "lat": 50.1252791,
  "lon": 14.3724772,
  "tags": {
    "amenity": "recycling"
  }
},
{
  "type": "node",
  "id": 1620809116,
  "lat": 50.1350790,
  "lon": 14.3818870,
  "tags": {
    "amenity": "recycling"
  }
},
{
  "type": "node",
  "id": 2353092461,
  "lat": 50.1227591,
  "lon": 14.4004264,
  "tags": {
    "amenity": "recycling"
  }
},
{
  "type": "node",
  "id": 1300473187,
  "lat": 50.1175356,
  "lon": 14.4173840,
  "tags": {
    "amenity": "recycling"
  }
},
{
  "type": "node",
  "id": 7713646154,
  "lat": 50.1154158,
  "lon": 14.4170750,
  "tags": {
    "amenity": "recycling"
  }
},
{
  "type": "node",
  "id": 3255788203,
  "lat": 50.1206892,
  "lon": 14.4109372,
  "tags": {
    "amenity": "recycling"
  }
},
{
  "type": "node",
  "id": 1300528933,
  "lat": 50.1256538,
  "lon": 14.4113342,
  "tags": {
    "amenity": "recycling"
  }
},
{
  "type": "node",
  "id": 1540728265,
  "lat": 50.1297899,
  "lon": 14.4153149,
  "tags": {
    "amenity": "recycling"
  }
},
{
  "type": "node",
  "id": 1540728282,
  "lat": 50.1306238,
  "lon": 14.4118714,
  "tags": {
    "amenity": "recycling"
  }
},
{
  "type": "node",
  "id": 1540728285,
  "lat": 50.1307394,
  "lon": 14.4165734,
  "tags": {
    "amenity": "recycling"
  }
},
{
  "type": "node",
  "id": 1865097184,
  "lat": 50.1324591,
  "lon": 14.4065517,
  "tags": {
    "amenity": "recycling",
    "recycling:glass": "yes",
    "recycling:paper": "yes",
    "recycling:plastic": "yes"
  }
},
{
  "type": "node",
  "id": 1865097185,
  "lat": 50.1321627,
  "lon": 14.4072575,
  "tags": {
    "amenity": "recycling"
  }
},
{
  "type": "node",
  "id": 1865097186,
  "lat": 50.1318292,
  "lon": 14.4094239,
  "tags": {
    "amenity": "recycling",
    "recycling:clothes": "yes"
  }
},
{
  "type": "node",
  "id": 1238413413,
  "lat": 50.0919169,
  "lon": 14.4290698,
  "tags": {
    "amenity": "recycling"
  }
},
{
  "type": "node",
  "id": 1229196627,
  "lat": 50.0951900,
  "lon": 14.4536928,
  "tags": {
    "amenity": "recycling",
    "source": "bing:ortofoto"
  }
},
{
  "type": "node",
  "id": 6875003895,
  "lat": 50.0897534,
  "lon": 14.4629494,
  "tags": {
    "amenity": "recycling",
    "recycling:glass": "yes",
    "recycling:paper": "yes",
    "recycling:plastic": "yes",
    "type": "container"
  }
},
{
  "type": "node",
  "id": 1300101250,
  "lat": 50.0903395,
  "lon": 14.4657134,
  "tags": {
    "amenity": "recycling"
  }
},
{
  "type": "node",
  "id": 7551151905,
  "lat": 50.1090870,
  "lon": 14.4530022,
  "tags": {
    "amenity": "recycling"
  }
},
{
  "type": "node",
  "id": 7713638342,
  "lat": 50.1180249,
  "lon": 14.4333077,
  "tags": {
    "amenity": "recycling",
    "recycling:glass": "yes",
    "recycling:paper": "yes",
    "recycling:plastic": "yes"
  }
},
{
  "type": "node",
  "id": 1300523168,
  "lat": 50.1255797,
  "lon": 14.4213677,
  "tags": {
    "amenity": "recycling"
  }
},
{
  "type": "node",
  "id": 1034514425,
  "lat": 50.1302151,
  "lon": 14.4309918,
  "tags": {
    "amenity": "recycling",
    "source": "bing:ortofoto"
  }
},
{
  "type": "node",
  "id": 1300523277,
  "lat": 50.1266446,
  "lon": 14.4253237,
  "tags": {
    "amenity": "recycling"
  }
},
{
  "type": "node",
  "id": 2710037317,
  "lat": 50.1306679,
  "lon": 14.4248438,
  "tags": {
    "amenity": "recycling",
    "recycling:glass": "yes",
    "recycling:paper": "yes",
    "recycling:plastic": "yes"
  }
},
{
  "type": "node",
  "id": 2710037321,
  "lat": 50.1302272,
  "lon": 14.4250161,
  "tags": {
    "amenity": "recycling",
    "recycling:glass": "yes",
    "recycling:paper": "yes",
    "recycling:plastic": "yes"
  }
},
{
  "type": "node",
  "id": 1812160568,
  "lat": 50.1335955,
  "lon": 14.4303971,
  "tags": {
    "amenity": "recycling"
  }
},
{
  "type": "node",
  "id": 1540728254,
  "lat": 50.1297291,
  "lon": 14.4311457,
  "tags": {
    "amenity": "recycling"
  }
},
{
  "type": "node",
  "id": 1729419580,
  "lat": 50.1292393,
  "lon": 14.4425749,
  "tags": {
    "amenity": "recycling"
  }
},
{
  "type": "node",
  "id": 7591228341,
  "lat": 50.1178322,
  "lon": 14.4490644,
  "tags": {
    "amenity": "recycling",
    "recycling:cans": "yes",
    "recycling:glass": "yes",
    "recycling:paper": "yes",
    "recycling:plastic": "yes"
  }
},
{
  "type": "node",
  "id": 1521760062,
  "lat": 50.1164535,
  "lon": 14.4593595,
  "tags": {
    "amenity": "recycling"
  }
},
{
  "type": "node",
  "id": 1650093750,
  "lat": 50.1266452,
  "lon": 14.4503889,
  "tags": {
    "amenity": "recycling"
  }
},
{
  "type": "node",
  "id": 2288432312,
  "lat": 50.1277954,
  "lon": 14.4449457,
  "tags": {
    "amenity": "recycling"
  }
},
{
  "type": "node",
  "id": 2288432344,
  "lat": 50.1285605,
  "lon": 14.4476493,
  "tags": {
    "amenity": "recycling"
  }
},
{
  "type": "node",
  "id": 1692810542,
  "lat": 50.1303308,
  "lon": 14.4608313,
  "tags": {
    "amenity": "recycling",
    "recycling:glass": "yes",
    "recycling:paper": "yes",
    "recycling:plastic": "yes"
  }
},
{
  "type": "node",
  "id": 7729091797,
  "lat": 50.1265270,
  "lon": 14.4608601,
  "tags": {
    "amenity": "recycling",
    "recycling:clothes": "yes"
  }
},
{
  "type": "node",
  "id": 2798447053,
  "lat": 49.9363573,
  "lon": 14.5478872,
  "tags": {
    "amenity": "recycling"
  }
},
{
  "type": "node",
  "id": 2798439864,
  "lat": 49.9335335,
  "lon": 14.5530420,
  "tags": {
    "amenity": "recycling"
  }
},
{
  "type": "node",
  "id": 2798379855,
  "lat": 49.9331675,
  "lon": 14.5575374,
  "tags": {
    "amenity": "recycling",
    "recycling:glass": "yes",
    "recycling:paper": "yes"
  }
},
{
  "type": "node",
  "id": 3601081819,
  "lat": 50.0005711,
  "lon": 14.5517314,
  "tags": {
    "amenity": "recycling"
  }
},
{
  "type": "node",
  "id": 1395765160,
  "lat": 49.9822422,
  "lon": 14.5862248,
  "tags": {
    "amenity": "recycling"
  }
},
{
  "type": "node",
  "id": 1395765165,
  "lat": 49.9826864,
  "lon": 14.5828485,
  "tags": {
    "amenity": "recycling"
  }
},
{
  "type": "node",
  "id": 3694732822,
  "lat": 49.9842645,
  "lon": 14.5859919,
  "tags": {
    "amenity": "recycling"
  }
},
{
  "type": "node",
  "id": 1827371245,
  "lat": 50.0039912,
  "lon": 14.6760388,
  "tags": {
    "amenity": "recycling",
    "recycling:glass": "yes",
    "recycling:paper": "yes",
    "recycling:plastic": "yes"
  }
},
{
  "type": "node",
  "id": 1301151374,
  "lat": 50.0159902,
  "lon": 14.6544270,
  "tags": {
    "amenity": "recycling",
    "recycling:glass": "yes",
    "recycling:paper": "yes"
  }
},
{
  "type": "node",
  "id": 940024199,
  "lat": 50.0464514,
  "lon": 14.5184308,
  "tags": {
    "amenity": "recycling"
  }
},
{
  "type": "node",
  "id": 937546614,
  "lat": 50.0474736,
  "lon": 14.5176397,
  "tags": {
    "amenity": "recycling"
  }
},
{
  "type": "node",
  "id": 1240670597,
  "lat": 50.0491446,
  "lon": 14.5215157,
  "tags": {
    "amenity": "recycling",
    "source": "bing:ortofoto"
  }
},
{
  "type": "node",
  "id": 1822702119,
  "lat": 50.0812451,
  "lon": 14.4895309,
  "tags": {
    "amenity": "recycling",
    "recycling:glass": "yes",
    "recycling:paper": "yes",
    "recycling:plastic_packaging": "yes"
  }
},
{
  "type": "node",
  "id": 1493541987,
  "lat": 50.0823252,
  "lon": 14.4900206,
  "tags": {
    "amenity": "recycling"
  }
},
{
  "type": "node",
  "id": 1932868904,
  "lat": 50.0782984,
  "lon": 14.4992675,
  "tags": {
    "amenity": "recycling"
  }
},
{
  "type": "node",
  "id": 1493541988,
  "lat": 50.0832405,
  "lon": 14.5007842,
  "tags": {
    "amenity": "recycling"
  }
},
{
  "type": "node",
  "id": 1493541989,
  "lat": 50.0835452,
  "lon": 14.5029969,
  "tags": {
    "amenity": "recycling"
  }
},
{
  "type": "node",
  "id": 4404081298,
  "lat": 50.0801191,
  "lon": 14.5014118,
  "tags": {
    "amenity": "recycling",
    "recycling:books": "yes",
    "recycling:cartons": "yes",
    "recycling:newspaper": "yes",
    "recycling:paper": "yes",
    "recycling:paper_packaging": "yes",
    "recycling:plastic": "yes",
    "recycling:plastic_bottles": "yes",
    "recycling:plastic_packaging": "yes"
  }
},
{
  "type": "node",
  "id": 4404081376,
  "lat": 50.0806538,
  "lon": 14.5007698,
  "tags": {
    "amenity": "recycling"
  }
},
{
  "type": "node",
  "id": 951496026,
  "lat": 50.0473101,
  "lon": 14.5266056,
  "tags": {
    "amenity": "recycling"
  }
},
{
  "type": "node",
  "id": 1119792350,
  "lat": 50.0519229,
  "lon": 14.5274931,
  "tags": {
    "amenity": "recycling"
  }
},
{
  "type": "node",
  "id": 2104473894,
  "lat": 50.0516452,
  "lon": 14.5259594,
  "tags": {
    "amenity": "recycling"
  }
},
{
  "type": "node",
  "id": 2849879739,
  "lat": 50.0453558,
  "lon": 14.5625389,
  "tags": {
    "amenity": "recycling",
    "recycling:glass": "yes",
    "recycling:paper": "yes"
  }
},
{
  "type": "node",
  "id": 2859861910,
  "lat": 50.0434653,
  "lon": 14.5641500,
  "tags": {
    "amenity": "recycling",
    "recycling:glass": "yes",
    "recycling:paper": "yes"
  }
},
{
  "type": "node",
  "id": 1412220417,
  "lat": 50.0473798,
  "lon": 14.5569756,
  "tags": {
    "amenity": "recycling"
  }
},
{
  "type": "node",
  "id": 3578029234,
  "lat": 50.0486594,
  "lon": 14.5607003,
  "tags": {
    "amenity": "recycling"
  }
},
{
  "type": "node",
  "id": 1436657907,
  "lat": 50.0471594,
  "lon": 14.5632086,
  "tags": {
    "amenity": "recycling"
  }
},
{
  "type": "node",
  "id": 1425040336,
  "lat": 50.0926219,
  "lon": 14.4781572,
  "tags": {
    "amenity": "recycling"
  }
},
{
  "type": "node",
  "id": 1594587318,
  "lat": 50.0881312,
  "lon": 14.4882342,
  "tags": {
    "amenity": "recycling",
    "recycling:glass": "yes",
    "recycling:paper": "yes",
    "recycling:plastic_packaging": "yes"
  }
},
{
  "type": "node",
  "id": 2449661805,
  "lat": 50.0914333,
  "lon": 14.4857809,
  "tags": {
    "amenity": "recycling"
  }
},
{
  "type": "node",
  "id": 3523582083,
  "lat": 50.1045596,
  "lon": 14.4843916,
  "tags": {
    "amenity": "recycling",
    "recycling:glass": "yes",
    "recycling:paper": "yes"
  }
},
{
  "type": "node",
  "id": 3523582084,
  "lat": 50.1046660,
  "lon": 14.4862652,
  "tags": {
    "amenity": "recycling",
    "recycling:glass": "yes",
    "recycling:paper": "yes"
  }
},
{
  "type": "node",
  "id": 374435600,
  "lat": 50.0995772,
  "lon": 14.4935336,
  "tags": {
    "amenity": "recycling"
  }
},
{
  "type": "node",
  "id": 4952394799,
  "lat": 50.1008040,
  "lon": 14.4911131,
  "tags": {
    "amenity": "recycling"
  }
},
{
  "type": "node",
  "id": 6355926965,
  "lat": 50.0866665,
  "lon": 14.5001653,
  "tags": {
    "amenity": "recycling"
  }
},
{
  "type": "node",
  "id": 2193182690,
  "lat": 50.1096607,
  "lon": 14.5040174,
  "tags": {
    "amenity": "recycling"
  }
},
{
  "type": "node",
  "id": 3522128742,
  "lat": 50.1093926,
  "lon": 14.5041130,
  "tags": {
    "amenity": "recycling",
    "note": "Kontejner na oblečení",
    "recycling:cans": "no",
    "recycling:clothes": "yes",
    "recycling:glass": "no",
    "recycling:paper": "no"
  }
},
{
  "type": "node",
  "id": 2611440999,
  "lat": 50.1048445,
  "lon": 14.5155029,
  "tags": {
    "amenity": "recycling",
    "recycling:cartons": "yes",
    "recycling:glass": "yes",
    "recycling:paper": "yes",
    "recycling:plastic": "yes"
  }
},
{
  "type": "node",
  "id": 1300472686,
  "lat": 50.1131982,
  "lon": 14.4712767,
  "tags": {
    "amenity": "recycling"
  }
},
{
  "type": "node",
  "id": 1300472753,
  "lat": 50.1123331,
  "lon": 14.4721679,
  "tags": {
    "amenity": "recycling"
  }
},
{
  "type": "node",
  "id": 1331448166,
  "lat": 50.1132043,
  "lon": 14.4729221,
  "tags": {
    "amenity": "recycling"
  }
},
{
  "type": "node",
  "id": 8301203564,
  "lat": 50.1340550,
  "lon": 14.4749503,
  "tags": {
    "amenity": "recycling"
  }
},
{
  "type": "node",
  "id": 253736532,
  "lat": 50.0867368,
  "lon": 14.5319492,
  "tags": {
    "amenity": "recycling",
    "name": "ASSMANN & SYN odpady, s.r.o.",
    "note": "sběrný dvůr",
    "phone": "272 703 231",
    "recycling:cans": "yes",
    "recycling:clothes": "yes",
    "recycling:glass": "yes",
    "recycling:paper": "yes",
    "website": "http://www.assmann.cz"
  }
},
{
  "type": "node",
  "id": 5607096561,
  "lat": 50.1352215,
  "lon": 14.5549910,
  "tags": {
    "amenity": "recycling"
  }
},
{
  "type": "node",
  "id": 1245930183,
  "lat": 50.1062449,
  "lon": 14.6140094,
  "tags": {
    "amenity": "recycling",
    "source": "bing:ortofoto"
  }
},
{
  "type": "node",
  "id": 3986662502,
  "lat": 50.1886015,
  "lon": 14.3201898,
  "tags": {
    "amenity": "recycling"
  }
},
{
  "type": "node",
  "id": 3986618281,
  "lat": 50.2121736,
  "lon": 14.2710659,
  "tags": {
    "amenity": "recycling"
  }
},
{
  "type": "node",
  "id": 457220339,
  "lat": 50.2375339,
  "lon": 14.2911192,
  "tags": {
    "amenity": "recycling"
  }
},
{
  "type": "node",
  "id": 335658394,
  "lat": 50.2410176,
  "lon": 14.2935521,
  "tags": {
    "amenity": "recycling",
    "created_by": "Merkaartor 0.13"
  }
},
{
  "type": "node",
  "id": 1754755720,
  "lat": 50.1972495,
  "lon": 14.3548262,
  "tags": {
    "amenity": "recycling"
  }
},
{
  "type": "node",
  "id": 1300685481,
  "lat": 50.1424754,
  "lon": 14.3786570,
  "tags": {
    "amenity": "recycling"
  }
},
{
  "type": "node",
  "id": 2173086987,
  "lat": 50.1715115,
  "lon": 14.4044735,
  "tags": {
    "amenity": "recycling"
  }
},
{
  "type": "node",
  "id": 1709770099,
  "lat": 50.1477124,
  "lon": 14.4424267,
  "tags": {
    "amenity": "recycling",
    "recycling:glass": "yes",
    "recycling:paper": "yes",
    "recycling:plastic": "yes"
  }
},
{
  "type": "node",
  "id": 6705163417,
  "lat": 50.1398863,
  "lon": 14.4464568,
  "tags": {
    "amenity": "recycling"
  }
},
{
  "type": "node",
  "id": 1675470498,
  "lat": 50.1469629,
  "lon": 14.4499029,
  "tags": {
    "amenity": "recycling"
  }
},
{
  "type": "node",
  "id": 1755082822,
  "lat": 50.1911089,
  "lon": 14.3721005,
  "tags": {
    "amenity": "recycling"
  }
},
{
  "type": "node",
  "id": 1704093412,
  "lat": 50.2105573,
  "lon": 14.3763441,
  "tags": {
    "amenity": "recycling"
  }
},
{
  "type": "node",
  "id": 1649298404,
  "lat": 50.2355129,
  "lon": 14.4081588,
  "tags": {
    "amenity": "recycling"
  }
},
{
  "type": "node",
  "id": 669525119,
  "lat": 50.2705982,
  "lon": 14.3962827,
  "tags": {
    "amenity": "recycling"
  }
},
{
  "type": "node",
  "id": 2261629098,
  "lat": 50.1430074,
  "lon": 14.4708687,
  "tags": {
    "amenity": "recycling"
  }
},
{
  "type": "node",
  "id": 2097645217,
  "lat": 50.1439082,
  "lon": 14.4795462,
  "tags": {
    "amenity": "recycling"
  }
},
{
  "type": "node",
  "id": 1704097463,
  "lat": 50.1485118,
  "lon": 14.4868731,
  "tags": {
    "amenity": "recycling"
  }
},
{
  "type": "node",
  "id": 2342171102,
  "lat": 50.1461168,
  "lon": 14.4859401,
  "tags": {
    "amenity": "recycling"
  }
},
{
  "type": "node",
  "id": 4307168443,
  "lat": 50.1414146,
  "lon": 14.5057716,
  "tags": {
    "amenity": "recycling"
  }
},
{
  "type": "node",
  "id": 8306680642,
  "lat": 50.1901183,
  "lon": 14.4936126,
  "tags": {
    "amenity": "recycling",
    "recycling:cans": "yes",
    "recycling:glass": "yes",
    "recycling:paper": "yes",
    "recycling:plastic": "yes"
  }
},
{
  "type": "node",
  "id": 1261874198,
  "lat": 50.1768042,
  "lon": 14.5094254,
  "tags": {
    "amenity": "recycling",
    "source": "bing:ortofoto"
  }
},
{
  "type": "node",
  "id": 1261873975,
  "lat": 50.1767016,
  "lon": 14.5157764,
  "tags": {
    "amenity": "recycling"
  }
},
{
  "type": "node",
  "id": 1261874280,
  "lat": 50.1819374,
  "lon": 14.5152171,
  "tags": {
    "amenity": "recycling"
  }
},
{
  "type": "node",
  "id": 1261874038,
  "lat": 50.1793696,
  "lon": 14.5194045,
  "tags": {
    "amenity": "recycling"
  }
},
{
  "type": "node",
  "id": 1403106636,
  "lat": 50.1752544,
  "lon": 14.5503294,
  "tags": {
    "amenity": "recycling"
  }
},
{
  "type": "node",
  "id": 1993435617,
  "lat": 50.1931240,
  "lon": 14.4936312,
  "tags": {
    "amenity": "recycling",
    "recycling:cans": "yes",
    "recycling:cardboard": "yes",
    "recycling:clothes": "yes",
    "recycling:glass": "yes",
    "recycling:paper": "yes",
    "recycling:plastic": "yes",
    "recycling:shoes": "yes"
  }
},
{
  "type": "node",
  "id": 8283800987,
  "lat": 50.2024389,
  "lon": 14.4840831,
  "tags": {
    "amenity": "recycling",
    "recycling:cans": "yes",
    "recycling:clothes": "yes"
  }
},
{
  "type": "node",
  "id": 8335409774,
  "lat": 50.1920217,
  "lon": 14.4970223,
  "tags": {
    "amenity": "recycling",
    "recycling:cans": "yes",
    "recycling:glass": "yes",
    "recycling:paper": "yes",
    "recycling:plastic": "yes",
    "recycling:waste": "yes"
  }
},
{
  "type": "node",
  "id": 333719110,
  "lat": 49.9802297,
  "lon": 14.7628831,
  "tags": {
    "amenity": "recycling",
    "created_by": "Potlatch 0.10f"
  }
},
{
  "type": "node",
  "id": 3798178343,
  "lat": 50.0053104,
  "lon": 14.6818300,
  "tags": {
    "amenity": "recycling"
  }
},
{
  "type": "node",
  "id": 3138001810,
  "lat": 49.9924721,
  "lon": 14.7361012,
  "tags": {
    "amenity": "recycling",
    "name": "tříděny odpad"
  }
},
{
  "type": "node",
  "id": 3112679922,
  "lat": 49.9905712,
  "lon": 14.7419155,
  "tags": {
    "amenity": "recycling",
    "recycling:cans": "yes",
    "recycling:glass": "yes",
    "recycling:paper": "yes",
    "recycling:plastic": "yes"
  }
},
{
  "type": "node",
  "id": 914423782,
  "lat": 49.9854395,
  "lon": 14.7576185,
  "tags": {
    "amenity": "recycling",
    "name": "popelnice"
  }
},
{
  "type": "node",
  "id": 3896355513,
  "lat": 50.0275480,
  "lon": 14.8361974,
  "tags": {
    "amenity": "recycling"
  }
},
{
  "type": "node",
  "id": 3896355514,
  "lat": 50.0287771,
  "lon": 14.8385619,
  "tags": {
    "amenity": "recycling"
  }
},
{
  "type": "node",
  "id": 1005980232,
  "lat": 50.0676452,
  "lon": 14.8528705,
  "tags": {
    "amenity": "recycling"
  }
},
{
  "type": "node",
  "id": 2393097522,
  "lat": 50.0703894,
  "lon": 14.8536689,
  "tags": {
    "addr:city": "Český Brod",
    "addr:conscriptionnumber": "339",
    "addr:country": "CZ",
    "addr:housenumber": "339",
    "addr:place": "Český Brod",
    "addr:postcode": "28201",
    "addr:street": "Palackého",
    "amenity": "recycling",
    "name": "Technické služby Český Brod",
    "ref:ruian:addr": "14482169"
  }
},
{
  "type": "node",
  "id": 1005980226,
  "lat": 50.0709422,
  "lon": 14.8635228,
  "tags": {
    "amenity": "recycling"
  }
},
{
  "type": "node",
  "id": 956013259,
  "lat": 50.0721083,
  "lon": 14.8849513,
  "tags": {
    "amenity": "recycling"
  }
},
{
  "type": "node",
  "id": 956013256,
  "lat": 50.0762276,
  "lon": 14.8811077,
  "tags": {
    "amenity": "recycling",
    "recycling:cartons": "yes",
    "recycling:glass": "yes",
    "recycling:papers": "yes",
    "recycling:plastics": "yes"
  }
},
{
  "type": "node",
  "id": 956013258,
  "lat": 50.0764428,
  "lon": 14.8842727,
  "tags": {
    "amenity": "recycling"
  }
},
{
  "type": "node",
  "id": 4055418860,
  "lat": 50.1010516,
  "lon": 14.8208353,
  "tags": {
    "amenity": "recycling"
  }
},
{
  "type": "node",
  "id": 3897775606,
  "lat": 50.1248834,
  "lon": 14.9588777,
  "tags": {
    "amenity": "recycling"
  }
},
{
  "type": "node",
  "id": 452415113,
  "lat": 50.1665245,
  "lon": 14.8386100,
  "tags": {
    "amenity": "recycling"
  }
},
{
  "type": "node",
  "id": 1590577045,
  "lat": 50.4382089,
  "lon": 14.2936466,
  "tags": {
    "amenity": "recycling"
  }
},
{
  "type": "node",
  "id": 3676007852,
  "lat": 50.4497114,
  "lon": 14.4014204,
  "tags": {
    "amenity": "recycling",
    "recycling:cans": "no",
    "recycling:clothes": "no",
    "recycling:glass": "yes",
    "recycling:paper": "yes"
  }
},
{
  "type": "node",
  "id": 1792508939,
  "lat": 50.5050338,
  "lon": 14.5377004,
  "tags": {
    "amenity": "recycling",
    "recycling:glass": "yes",
    "recycling:paper": "yes"
  }
},
{
  "type": "node",
  "id": 7855213273,
  "lat": 50.6946910,
  "lon": 14.5372153,
  "tags": {
    "amenity": "recycling"
  }
},
{
  "type": "node",
  "id": 4159852035,
  "lat": 50.7497470,
  "lon": 14.4936896,
  "tags": {
    "amenity": "recycling"
  }
},
{
  "type": "node",
  "id": 4959602581,
  "lat": 50.7556660,
  "lon": 14.5503969,
  "tags": {
    "amenity": "recycling"
  }
},
{
  "type": "node",
  "id": 4549143449,
  "lat": 50.7404465,
  "lon": 14.5908056,
  "tags": {
    "amenity": "recycling"
  }
},
{
  "type": "node",
  "id": 842666632,
  "lat": 50.7029285,
  "lon": 14.8014113,
  "tags": {
    "amenity": "recycling",
    "recycling:cans": "yes",
    "recycling:paper": "yes"
  }
},
{
  "type": "node",
  "id": 4362824624,
  "lat": 50.7798213,
  "lon": 14.2093814,
  "tags": {
    "amenity": "recycling"
  }
},
{
  "type": "node",
  "id": 4362839710,
  "lat": 50.7818582,
  "lon": 14.2206946,
  "tags": {
    "amenity": "recycling"
  }
},
{
  "type": "node",
  "id": 819010821,
  "lat": 50.8001280,
  "lon": 14.4065403,
  "tags": {
    "amenity": "recycling",
    "name": "Sběrné suroviny"
  }
},
{
  "type": "node",
  "id": 819019426,
  "lat": 50.8021123,
  "lon": 14.4118060,
  "tags": {
    "amenity": "recycling"
  }
},
{
  "type": "node",
  "id": 819019427,
  "lat": 50.8030789,
  "lon": 14.4163534,
  "tags": {
    "amenity": "recycling"
  }
},
{
  "type": "node",
  "id": 819010819,
  "lat": 50.7995586,
  "lon": 14.4183174,
  "tags": {
    "amenity": "recycling"
  }
},
{
  "type": "node",
  "id": 3157026713,
  "lat": 51.0361785,
  "lon": 14.3132950,
  "tags": {
    "amenity": "recycling"
  }
},
{
  "type": "node",
  "id": 2398680686,
  "lat": 51.0030279,
  "lon": 14.4296174,
  "tags": {
    "amenity": "recycling"
  }
},
{
  "type": "node",
  "id": 2810685069,
  "lat": 51.0010076,
  "lon": 14.4532772,
  "tags": {
    "amenity": "recycling",
    "recycling:cans": "yes",
    "recycling:glass": "yes"
  }
},
{
  "type": "node",
  "id": 4907877013,
  "lat": 50.8648965,
  "lon": 15.0382494,
  "tags": {
    "amenity": "recycling"
  }
},
{
  "type": "node",
  "id": 1832571327,
  "lat": 49.9780460,
  "lon": 15.1586366,
  "tags": {
    "amenity": "recycling",
    "recycling:glass": "yes",
    "recycling:paper": "yes",
    "source": "survey"
  }
},
{
  "type": "node",
  "id": 1832571375,
  "lat": 49.9831906,
  "lon": 15.1511343,
  "tags": {
    "amenity": "recycling",
    "recycling:glass": "yes",
    "recycling:paper": "yes",
    "recycling:plastic": "yes",
    "source": "survey"
  }
},
{
  "type": "node",
  "id": 4241431320,
  "lat": 49.9852450,
  "lon": 15.2569944,
  "tags": {
    "amenity": "recycling"
  }
},
{
  "type": "node",
  "id": 4272271821,
  "lat": 50.1426487,
  "lon": 15.1383426,
  "tags": {
    "amenity": "recycling"
  }
},
{
  "type": "node",
  "id": 1484719926,
  "lat": 50.3437747,
  "lon": 15.2373715,
  "tags": {
    "amenity": "recycling"
  }
},
{
  "type": "node",
  "id": 3296112063,
  "lat": 49.9627441,
  "lon": 15.6397665,
  "tags": {
    "amenity": "recycling",
    "recycling:glass": "no",
    "recycling:paper": "yes"
  }
},
{
  "type": "node",
  "id": 4078818633,
  "lat": 49.9398748,
  "lon": 15.8019389,
  "tags": {
    "amenity": "recycling"
  }
},
{
  "type": "node",
  "id": 2188649200,
  "lat": 50.0262440,
  "lon": 15.7998570,
  "tags": {
    "amenity": "recycling",
    "name": "SMP Sberny Dvur",
    "note": "Sberny dvur. Vsechny druhy odpadu."
  }
},
{
  "type": "node",
  "id": 4463329933,
  "lat": 50.1117696,
  "lon": 15.8351447,
  "tags": {
    "amenity": "recycling",
    "recycling:glass": "yes",
    "recycling:paper": "yes",
    "recycling:plastic": "yes"
  }
},
{
  "type": "node",
  "id": 3896304477,
  "lat": 50.2020260,
  "lon": 15.8133914,
  "tags": {
    "amenity": "recycling",
    "recycling:batteries": "yes",
    "recycling:clothes": "yes",
    "recycling:glass_bottles": "yes",
    "recycling:paper": "yes",
    "recycling:plastic": "yes",
    "recycling:small_appliances": "yes"
  }
},
{
  "type": "node",
  "id": 3896304476,
  "lat": 50.2038405,
  "lon": 15.8148548,
  "tags": {
    "amenity": "recycling"
  }
},
{
  "type": "node",
  "id": 3896304478,
  "lat": 50.2005729,
  "lon": 15.8164413,
  "tags": {
    "amenity": "recycling"
  }
},
{
  "type": "node",
  "id": 3896304479,
  "lat": 50.2002974,
  "lon": 15.8149686,
  "tags": {
    "amenity": "recycling"
  }
},
{
  "type": "node",
  "id": 6273725808,
  "lat": 50.3838479,
  "lon": 15.1575604,
  "tags": {
    "amenity": "recycling"
  }
},
{
  "type": "node",
  "id": 2379378346,
  "lat": 50.6894327,
  "lon": 15.2127061,
  "tags": {
    "amenity": "recycling",
    "recycling:glass": "yes",
    "recycling:paper": "yes"
  }
},
{
  "type": "node",
  "id": 343509330,
  "lat": 50.7591095,
  "lon": 15.3091492,
  "tags": {
    "amenity": "recycling"
  }
},
{
  "type": "node",
  "id": 3268939222,
  "lat": 50.7368240,
  "lon": 15.4760807,
  "tags": {
    "amenity": "recycling"
  }
},
{
  "type": "node",
  "id": 1349449874,
  "lat": 50.5105574,
  "lon": 15.6076562,
  "tags": {
    "amenity": "recycling",
    "recycling:glass": "yes",
    "recycling:paper": "yes",
    "recycling:plastic": "yes"
  }
},
{
  "type": "node",
  "id": 1795511823,
  "lat": 50.5272746,
  "lon": 15.6878932,
  "tags": {
    "amenity": "recycling",
    "recycling:glass": "yes",
    "recycling:paper": "yes",
    "recycling:plastic": "yes"
  }
},
{
  "type": "node",
  "id": 1855811712,
  "lat": 50.5425587,
  "lon": 15.7246887,
  "tags": {
    "amenity": "recycling"
  }
},
{
  "type": "node",
  "id": 1855811659,
  "lat": 50.5388030,
  "lon": 15.7291395,
  "tags": {
    "amenity": "recycling",
    "recycling:glass": "yes",
    "recycling:paper": "yes"
  }
},
{
  "type": "node",
  "id": 1855811674,
  "lat": 50.5400014,
  "lon": 15.7305688,
  "tags": {
    "amenity": "recycling"
  }
},
{
  "type": "node",
  "id": 1855811676,
  "lat": 50.5401547,
  "lon": 15.7292237,
  "tags": {
    "amenity": "recycling"
  }
},
{
  "type": "node",
  "id": 1855811695,
  "lat": 50.5410528,
  "lon": 15.7294850,
  "tags": {
    "amenity": "recycling",
    "recycling:glass": "yes",
    "recycling:paper": "yes"
  }
},
{
  "type": "node",
  "id": 3157571122,
  "lat": 50.7255016,
  "lon": 15.6365638,
  "tags": {
    "amenity": "recycling"
  }
},
{
  "type": "node",
  "id": 1853459972,
  "lat": 50.6900511,
  "lon": 15.7689794,
  "tags": {
    "amenity": "recycling",
    "recycling:glass": "yes",
    "recycling:paper": "yes",
    "recycling:plastic": "yes"
  }
},
{
  "type": "node",
  "id": 810790906,
  "lat": 50.0435128,
  "lon": 16.0856643,
  "tags": {
    "amenity": "recycling",
    "recycling:glass": "yes",
    "recycling:paper": "yes"
  }
},
{
  "type": "node",
  "id": 3896387177,
  "lat": 49.9438454,
  "lon": 16.1510816,
  "tags": {
    "amenity": "recycling"
  }
},
{
  "type": "node",
  "id": 3896387179,
  "lat": 49.9451972,
  "lon": 16.1539388,
  "tags": {
    "amenity": "recycling"
  }
},
{
  "type": "node",
  "id": 3896387188,
  "lat": 49.9510388,
  "lon": 16.1545236,
  "tags": {
    "amenity": "recycling"
  }
},
{
  "type": "node",
  "id": 3581195327,
  "lat": 49.9500656,
  "lon": 16.1546838,
  "tags": {
    "amenity": "recycling",
    "recycling:cans": "no",
    "recycling:clothes": "no",
    "recycling:glass": "no",
    "recycling:paper": "yes"
  }
},
{
  "type": "node",
  "id": 3581541893,
  "lat": 49.9958143,
  "lon": 16.2297222,
  "tags": {
    "amenity": "recycling",
    "recycling:cans": "no",
    "recycling:clothes": "no",
    "recycling:glass": "no",
    "recycling:paper": "yes"
  }
},
{
  "type": "node",
  "id": 3581580931,
  "lat": 49.9990487,
  "lon": 16.2337739,
  "tags": {
    "amenity": "recycling",
    "recycling:cans": "no",
    "recycling:clothes": "no",
    "recycling:glass": "no",
    "recycling:paper": "yes"
  }
},
{
  "type": "node",
  "id": 813429562,
  "lat": 50.0104434,
  "lon": 16.2638555,
  "tags": {
    "amenity": "recycling"
  }
},
{
  "type": "node",
  "id": 2459841173,
  "lat": 50.2913112,
  "lon": 16.1455382,
  "tags": {
    "amenity": "recycling"
  }
},
{
  "type": "node",
  "id": 2459841835,
  "lat": 50.2965808,
  "lon": 16.1405542,
  "tags": {
    "amenity": "recycling"
  }
},
{
  "type": "node",
  "id": 2459841753,
  "lat": 50.2949772,
  "lon": 16.1497585,
  "tags": {
    "amenity": "recycling"
  }
},
{
  "type": "node",
  "id": 1360468750,
  "lat": 50.3396758,
  "lon": 16.2718894,
  "tags": {
    "amenity": "recycling",
    "recycling:cans": "yes",
    "recycling:glass": "yes",
    "recycling:paper": "yes",
    "recycling:plastic": "yes"
  }
},
{
  "type": "node",
  "id": 1360468694,
  "lat": 50.3403255,
  "lon": 16.2743013,
  "tags": {
    "amenity": "recycling",
    "recycling:glass": "yes",
    "recycling:plastic": "yes"
  }
},
{
  "type": "node",
  "id": 1395378364,
  "lat": 49.9729675,
  "lon": 16.3669941,
  "tags": {
    "amenity": "recycling",
    "recycling:glass": "yes",
    "recycling:paper": "yes",
    "recycling:plastic": "yes"
  }
},
{
  "type": "node",
  "id": 1395378355,
  "lat": 49.9711531,
  "lon": 16.3868821,
  "tags": {
    "amenity": "recycling",
    "recycling:glass": "yes",
    "recycling:paper": "yes",
    "recycling:plastic": "yes"
  }
},
{
  "type": "node",
  "id": 839211329,
  "lat": 49.9729958,
  "lon": 16.3947896,
  "tags": {
    "amenity": "recycling",
    "source": "knowledge"
  }
},
{
  "type": "node",
  "id": 839211399,
  "lat": 49.9730597,
  "lon": 16.4081438,
  "tags": {
    "amenity": "recycling",
    "recycling:glass": "yes",
    "recycling:paper": "yes",
    "recycling:plastic": "yes",
    "source": "knowledge"
  }
},
{
  "type": "node",
  "id": 839211424,
  "lat": 49.9733400,
  "lon": 16.4062315,
  "tags": {
    "amenity": "recycling",
    "recycling:glass": "yes",
    "recycling:paper": "yes",
    "recycling:plastic": "yes",
    "source": "knowledge"
  }
},
{
  "type": "node",
  "id": 842112575,
  "lat": 49.9726480,
  "lon": 16.4048337,
  "tags": {
    "amenity": "recycling",
    "recycling:glass": "yes",
    "recycling:paper": "yes",
    "recycling:plastic": "yes",
    "source": "knowledge"
  }
},
{
  "type": "node",
  "id": 2848313173,
  "lat": 50.2089064,
  "lon": 16.4086622,
  "tags": {
    "amenity": "recycling"
  }
},
{
  "type": "node",
  "id": 942521334,
  "lat": 50.3908614,
  "lon": 16.0409830,
  "tags": {
    "amenity": "recycling",
    "recycling:glass": "yes",
    "recycling:paper": "yes",
    "recycling:plastic": "yes"
  }
},
{
  "type": "node",
  "id": 942359459,
  "lat": 50.3926278,
  "lon": 16.0474226,
  "tags": {
    "amenity": "recycling",
    "recycling:glass": "yes",
    "recycling:paper": "yes",
    "recycling:plastic": "yes"
  }
},
{
  "type": "node",
  "id": 942359471,
  "lat": 50.3904959,
  "lon": 16.0507177,
  "tags": {
    "amenity": "recycling",
    "recycling:glass": "yes",
    "recycling:paper": "yes",
    "recycling:plastic": "yes"
  }
},
{
  "type": "node",
  "id": 987134348,
  "lat": 50.3928860,
  "lon": 16.0508956,
  "tags": {
    "amenity": "recycling",
    "recycling:glass": "yes",
    "recycling:paper": "yes",
    "recycling:plastic": "yes"
  }
},
{
  "type": "node",
  "id": 791243704,
  "lat": 50.3949892,
  "lon": 16.0457640,
  "tags": {
    "amenity": "recycling",
    "recycling:glass": "yes",
    "recycling:plastic": "yes"
  }
},
{
  "type": "node",
  "id": 2063287631,
  "lat": 50.3969120,
  "lon": 16.0433765,
  "tags": {
    "amenity": "recycling",
    "source": "survey"
  }
},
{
  "type": "node",
  "id": 2083521512,
  "lat": 50.3668762,
  "lon": 16.1391464,
  "tags": {
    "amenity": "recycling",
    "recycling:glass": "yes",
    "recycling:paper": "yes"
  }
},
{
  "type": "node",
  "id": 2083521513,
  "lat": 50.3677891,
  "lon": 16.1446353,
  "tags": {
    "amenity": "recycling",
    "recycling:batteries": "yes",
    "recycling:glass": "yes",
    "recycling:paper": "yes"
  }
},
{
  "type": "node",
  "id": 2252312243,
  "lat": 50.4714345,
  "lon": 16.0898311,
  "tags": {
    "amenity": "recycling"
  }
},
{
  "type": "node",
  "id": 2169080840,
  "lat": 50.4831665,
  "lon": 16.0943692,
  "tags": {
    "amenity": "recycling"
  }
},
{
  "type": "node",
  "id": 849557805,
  "lat": 50.3567612,
  "lon": 16.1907601,
  "tags": {
    "amenity": "recycling",
    "recycling:glass": "yes",
    "recycling:paper": "yes",
    "recycling:plastic": "yes"
  }
},
{
  "type": "node",
  "id": 1871592576,
  "lat": 50.3866346,
  "lon": 16.2529530,
  "tags": {
    "amenity": "recycling"
  }
},
{
  "type": "node",
  "id": 3659451104,
  "lat": 50.5907372,
  "lon": 16.3279120,
  "tags": {
    "amenity": "recycling",
    "opening_hours": "24/7"
  }
},
{
  "type": "node",
  "id": 343619670,
  "lat": 50.7854165,
  "lon": 15.3209218,
  "tags": {
    "amenity": "recycling"
  }
},
{
  "type": "node",
  "id": 3939503900,
  "lat": 49.9548593,
  "lon": 16.9620946,
  "tags": {
    "amenity": "recycling",
    "name": "Zběrné místo",
    "operator": "HOPR TRADE CZ, s.r.o."
  }
},
{
  "type": "node",
  "id": 4348909952,
  "lat": 50.0749063,
  "lon": 16.7833477,
  "tags": {
    "amenity": "recycling",
    "recycling:glass": "yes",
    "recycling:paper": "yes",
    "recycling:plastic": "yes"
  }
},
{
  "type": "node",
  "id": 4235143496,
  "lat": 50.0713417,
  "lon": 16.9320663,
  "tags": {
    "amenity": "recycling"
  }
},
{
  "type": "node",
  "id": 1813235612,
  "lat": 49.9819560,
  "lon": 17.0143408,
  "tags": {
    "amenity": "recycling"
  }
},
{
  "type": "node",
  "id": 1813235615,
  "lat": 49.9834582,
  "lon": 17.0145400,
  "tags": {
    "amenity": "recycling"
  }
},
{
  "type": "node",
  "id": 4235144260,
  "lat": 50.0194331,
  "lon": 17.0788992,
  "tags": {
    "amenity": "recycling"
  }
},
{
  "type": "node",
  "id": 3162675155,
  "lat": 50.0362179,
  "lon": 17.0669331,
  "tags": {
    "amenity": "recycling"
  }
},
{
  "type": "node",
  "id": 2066913354,
  "lat": 50.3646180,
  "lon": 17.0278948,
  "tags": {
    "amenity": "recycling"
  }
},
{
  "type": "node",
  "id": 3046291213,
  "lat": 50.0881276,
  "lon": 17.6963150,
  "tags": {
    "amenity": "recycling",
    "recycling:clothes": "yes"
  }
},
{
  "type": "way",
  "id": 116172574,
  "center": {
    "lat": 48.7445520,
    "lon": 14.4873200
  },
  "nodes": [
    1310635508,
    1310637170,
    1310639345,
    1310638363,
    1310627929,
    1310629872,
    1310631695,
    1310636278,
    1310638095,
    1310638241,
    1310627820,
    7424749654,
    1310629772,
    1310628820,
    1310630739,
    1310632575,
    1310634512,
    1310628042,
    1310629980,
    1310631790,
    1310633656,
    1310632766,
    1310635508
  ],
  "tags": {
    "amenity": "recycling",
    "building": "yes",
    "source": "cuzk:km"
  }
},
{
  "type": "way",
  "id": 116172675,
  "center": {
    "lat": 48.7452355,
    "lon": 14.4864600
  },
  "nodes": [
    1310637279,
    1310639439,
    1310628974,
    1310632369,
    1310637279
  ],
  "tags": {
    "amenity": "recycling",
    "building": "yes",
    "source": "cuzk:km"
  }
},
{
  "type": "way",
  "id": 431518671,
  "center": {
    "lat": 49.4236896,
    "lon": 14.4181711
  },
  "nodes": [
    4307271241,
    4307271242,
    4307271243,
    4307271244,
    4307271241
  ],
  "tags": {
    "amenity": "recycling"
  }
},
{
  "type": "way",
  "id": 297639425,
  "center": {
    "lat": 49.3752380,
    "lon": 14.9621272
  },
  "nodes": [
    3015298241,
    3015298248,
    3015298249,
    3015298250,
    3015298246,
    3015298247,
    3015298241
  ],
  "tags": {
    "amenity": "recycling"
  }
},
{
  "type": "way",
  "id": 366119633,
  "center": {
    "lat": 49.2068841,
    "lon": 15.8968693
  },
  "nodes": [
    2695364921,
    3701080111,
    3701080112,
    3701080113,
    3701080114,
    3701080115,
    3701080116,
    2695364885,
    2695364896,
    2695364921
  ],
  "tags": {
    "amenity": "recycling",
    "recycling:cans": "yes"
  }
},
{
  "type": "way",
  "id": 390411002,
  "center": {
    "lat": 49.1886230,
    "lon": 16.6441137
  },
  "nodes": [
    3846262475,
    3846262471,
    3935708115,
    3935708116,
    3846262475
  ],
  "tags": {
    "amenity": "recycling"
  }
},
{
  "type": "way",
  "id": 79480990,
  "center": {
    "lat": 49.6307879,
    "lon": 16.7093765
  },
  "nodes": [
    927847322,
    927844553,
    927842266,
    927840236,
    4776162762,
    4776162761,
    927846200,
    927843400,
    927839330,
    927841409,
    927837463,
    927850708,
    927847682,
    927844858,
    927841198,
    927839115,
    927837242,
    927850436,
    4776162760,
    927847322
  ],
  "tags": {
    "addr:city": "Jevíčko",
    "addr:housenumber": "449",
    "addr:postcode": "56943",
    "addr:street": "M. Mikuláše",
    "amenity": "recycling",
    "building": "residential",
    "building:flats": "1",
    "building:levels": "1",
    "building:ruian:type": "3",
    "name": "Sběrný dvůr",
    "operator": "Město Jevíčko",
    "recycling:batteries": "yes",
    "recycling:cans": "yes",
    "recycling:clothes": "yes",
    "recycling:glass": "yes",
    "recycling:paper": "yes",
    "ref:ruian:building": "1812912",
    "source": "cuzk:ruian",
    "website": "https://www.jevicko.cz/index.php?id=10045&vyzn=sb%ECrn%FD"
  }
},
{
  "type": "way",
  "id": 239343981,
  "center": {
    "lat": 49.6307314,
    "lon": 16.7099510
  },
  "nodes": [
    2471375446,
    2471375440,
    2471375439,
    2471375445,
    4776162759,
    4776162758,
    2471375446
  ],
  "tags": {
    "addr:city": "Jevíčko",
    "addr:housenumber": "323",
    "addr:postcode": "56943",
    "addr:street": "Na Salajce",
    "amenity": "recycling",
    "building": "house",
    "building:flats": "1",
    "building:levels": "1",
    "building:ruian:type": "7",
    "name": "Sběrný dvůr",
    "operator": "Město Jevíčko",
    "recycling:batteries": "yes",
    "recycling:cans": "yes",
    "recycling:clothes": "yes",
    "recycling:glass": "yes",
    "recycling:paper": "yes",
    "ref:ruian:building": "1811746",
    "source": "cuzk:ruian",
    "website": "https://www.jevicko.cz/index.php?id=10045&vyzn=sb%ECrn%FD"
  }
},
{
  "type": "way",
  "id": 318766919,
  "center": {
    "lat": 49.8841682,
    "lon": 16.6343455
  },
  "nodes": [
    3251358977,
    3251358978,
    3251358979,
    3251358980,
    3251358977
  ],
  "tags": {
    "amenity": "recycling",
    "name": "Sběrný dvůr"
  }
},
{
  "type": "way",
  "id": 422137361,
  "center": {
    "lat": 49.3629610,
    "lon": 17.1289070
  },
  "nodes": [
    4218621127,
    4218626289,
    4218626290,
    4218626291,
    4218621127
  ],
  "tags": {
    "amenity": "recycling"
  }
},
{
  "type": "way",
  "id": 422137441,
  "center": {
    "lat": 49.3644119,
    "lon": 17.1272059
  },
  "nodes": [
    4218620854,
    4218620855,
    4218620856,
    4218620857,
    4218620854
  ],
  "tags": {
    "amenity": "recycling"
  }
},
{
  "type": "way",
  "id": 422133812,
  "center": {
    "lat": 49.3654549,
    "lon": 17.1297568
  },
  "nodes": [
    4218592033,
    4218592034,
    4218592035,
    4218592036,
    4218592033
  ],
  "tags": {
    "amenity": "recycling"
  }
},
{
  "type": "way",
  "id": 31512394,
  "center": {
    "lat": 49.5082329,
    "lon": 17.2006333
  },
  "nodes": [
    352687957,
    352687958,
    352687959,
    352687960,
    352687957
  ],
  "tags": {
    "amenity": "recycling",
    "recycling:glass": "yes"
  }
},
{
  "type": "way",
  "id": 31512402,
  "center": {
    "lat": 49.5063584,
    "lon": 17.2008529
  },
  "nodes": [
    352687995,
    352687994,
    352687997,
    352687996,
    352687995
  ],
  "tags": {
    "amenity": "recycling",
    "recycling:glass": "yes"
  }
},
{
  "type": "way",
  "id": 31512391,
  "center": {
    "lat": 49.5098545,
    "lon": 17.2013542
  },
  "nodes": [
    352687955,
    352687956,
    352687953,
    352687954,
    352687955
  ],
  "tags": {
    "amenity": "recycling",
    "recycling:glass": "yes"
  }
},
{
  "type": "way",
  "id": 31546085,
  "center": {
    "lat": 49.5106207,
    "lon": 17.2027415
  },
  "nodes": [
    352999887,
    352999889,
    352999890,
    352999891,
    352999887
  ],
  "tags": {
    "amenity": "recycling",
    "recycling:glass": "yes"
  }
},
{
  "type": "way",
  "id": 57357889,
  "center": {
    "lat": 49.2341555,
    "lon": 17.6861246
  },
  "nodes": [
    712869074,
    712869008,
    712869048,
    7182251689,
    7188254129,
    712869053,
    7188254128,
    7188254130,
    712869065,
    7188254133,
    7188254131,
    7188254132,
    712869074
  ],
  "tags": {
    "amenity": "recycling",
    "barrier": "fence",
    "recycling:batteries": "yes",
    "recycling:cans": "yes",
    "recycling:clothes": "yes",
    "recycling:glass": "yes",
    "recycling:paper": "yes",
    "recycling:scrap_metal": "yes"
  }
},
{
  "type": "way",
  "id": 94788695,
  "center": {
    "lat": 49.7814677,
    "lon": 18.1611046
  },
  "nodes": [
    1100435949,
    1100435951,
    1100435943,
    907190041,
    907190062,
    1100435949
  ],
  "tags": {
    "amenity": "recycling",
    "landuse": "industrial",
    "name": "Sběrný dvůr OZO"
  }
},
{
  "type": "way",
  "id": 44069557,
  "center": {
    "lat": 49.6531317,
    "lon": 18.6993552
  },
  "nodes": [
    540367181,
    560145255,
    560145256,
    560145257,
    540367181
  ],
  "tags": {
    "amenity": "recycling",
    "recycling:glass": "yes",
    "recycling:paper": "yes"
  }
},
{
  "type": "way",
  "id": 926018365,
  "center": {
    "lat": 50.3387104,
    "lon": 13.5510820
  },
  "nodes": [
    8593609721,
    8593609722,
    8593609723,
    8593609724,
    8593609725,
    8593609726,
    8593609727,
    8593609721
  ],
  "tags": {
    "amenity": "recycling"
  }
},
{
  "type": "way",
  "id": 381437477,
  "center": {
    "lat": 50.0319319,
    "lon": 14.2281255
  },
  "nodes": [
    3846376760,
    3846376761,
    3846376762,
    3846376763,
    3846376760
  ],
  "tags": {
    "amenity": "recycling"
  }
},
{
  "type": "way",
  "id": 390109006,
  "center": {
    "lat": 50.4083495,
    "lon": 14.0557401
  },
  "nodes": [
    3932724844,
    3932724845,
    3932724846,
    3932724847,
    3932724844
  ],
  "tags": {
    "amenity": "recycling",
    "area": "yes"
  }
},
{
  "type": "way",
  "id": 417565679,
  "center": {
    "lat": 49.9362251,
    "lon": 14.3755893
  },
  "nodes": [
    4180950621,
    4180950619,
    4180950616,
    4180950613,
    4180950611,
    4180950612,
    4180950614,
    4180950615,
    4180950621
  ],
  "tags": {
    "amenity": "recycling",
    "barrier": "fence",
    "fence_type": "wire"
  }
},
{
  "type": "way",
  "id": 371604671,
  "center": {
    "lat": 50.0607771,
    "lon": 14.3764910
  },
  "nodes": [
    3751693943,
    5779102535,
    3751693944,
    3674731269,
    278171426,
    278335356,
    3751693943
  ],
  "tags": {
    "amenity": "recycling",
    "name": "sběrna"
  }
},
{
  "type": "way",
  "id": 145740252,
  "center": {
    "lat": 50.4370855,
    "lon": 14.2913445
  },
  "nodes": [
    1590951550,
    1590951548,
    1590951551,
    1590951553,
    1590951555,
    1590951550
  ],
  "tags": {
    "amenity": "recycling",
    "source": "cuzk:km"
  }
},
{
  "type": "way",
  "id": 51200116,
  "center": {
    "lat": 50.0674504,
    "lon": 15.7574969
  },
  "nodes": [
    618635291,
    618635292,
    618635271,
    618635272,
    618541379,
    618541380,
    618635291
  ],
  "tags": {
    "amenity": "recycling",
    "recycling:batteries": "no",
    "recycling:paper": "yes",
    "recycling:scrap_metal": "yes"
  }
},
{
  "type": "way",
  "id": 232303132,
  "center": {
    "lat": 50.4845457,
    "lon": 15.5123136
  },
  "nodes": [
    2406514034,
    2406514030,
    2406514042,
    2406514045,
    2406514034
  ],
  "tags": {
    "amenity": "recycling"
  }
},
{
  "type": "way",
  "id": 631884940,
  "center": {
    "lat": 50.3675726,
    "lon": 15.8348880
  },
  "nodes": [
    5966588911,
    5966588912,
    5966588913,
    5966588914,
    5966588911
  ],
  "tags": {
    "amenity": "recycling",
    "building": "roof",
    "recycling:glass": "yes",
    "recycling:paper": "yes",
    "recycling:plastic": "yes"
  }
},
{
  "type": "way",
  "id": 361321636,
  "center": {
    "lat": 50.3568446,
    "lon": 16.1474047
  },
  "nodes": [
    3658137911,
    3658137912,
    3658137913,
    3658137914,
    3658137911
  ],
  "tags": {
    "amenity": "recycling",
    "recycling:cans": "no",
    "recycling:clothes": "no",
    "recycling:glass": "yes",
    "recycling:paper": "yes"
  }
},
{
  "type": "way",
  "id": 361321426,
  "center": {
    "lat": 50.3573361,
    "lon": 16.1489113
  },
  "nodes": [
    3658134724,
    3658136625,
    3658136626,
    3658136627,
    3658134724
  ],
  "tags": {
    "amenity": "recycling",
    "recycling:cans": "no",
    "recycling:clothes": "no",
    "recycling:glass": "yes",
    "recycling:paper": "yes"
  }
},
{
  "type": "way",
  "id": 314241684,
  "center": {
    "lat": 50.4060932,
    "lon": 16.1614389
  },
  "nodes": [
    3202890974,
    3202890975,
    3202890976,
    3202890977,
    3202890974
  ],
  "tags": {
    "amenity": "recycling"
  }
}

  ]
}
